Producer name,City,Country,Region,city_lat,city_lon,lat,lon
ABU DHABI NATIONAL OIL COMPANY (ADNOC),Aliaga,Turkey,Greater Europe,38.799561,26.97074,24.4619703,54.32421249999999
ABU DHABI NATIONAL OIL COMPANY (ADNOC),Bandar Imam,Iran,Middle East,30.4472068,49.0716096,24.4619703,54.32421249999999
ABU DHABI NATIONAL OIL COMPANY (ADNOC),Cartagena,Colombia,Latin America and the Caribbean,10.3932277,-75.4832311,24.4619703,54.32421249999999
ABU DHABI NATIONAL OIL COMPANY (ADNOC),Daesan,South Korea,Asia,36.9395813,126.4343234,24.4619703,54.32421249999999
ABU DHABI NATIONAL OIL COMPANY (ADNOC),Hualpen,Chile,Latin America and the Caribbean,-36.7866757,-73.1099531,24.4619703,54.32421249999999
ABU DHABI NATIONAL OIL COMPANY (ADNOC),Kalush,Ukraine,Greater Europe,49.0414259,24.3950384,24.4619703,54.32421249999999
ABU DHABI NATIONAL OIL COMPANY (ADNOC),Pancevo,Serbia,Greater Europe,44.874,20.6475673,24.4619703,54.32421249999999
ABU DHABI NATIONAL OIL COMPANY (ADNOC),Panjin,China,Asia,41.119997,122.070714,24.4619703,54.32421249999999
ABU DHABI NATIONAL OIL COMPANY (ADNOC),Paulinia,Brazil,Latin America and the Caribbean,-22.7409594,-47.174281,24.4619703,54.32421249999999
ALCO-NAPHTHA ZAO,Al Jubail,Saudi Arabia,Middle East,26.9597709,49.5687416,26.9597709,49.5687416
ARABIAN INDUSTRIAL FIBERS - IBN RASHD COMPANY,Salalah,Oman,Middle East,17.0193843,54.11075049999999,23.9893761,38.2453926
ARYA SASOL POLYMER CO,Bandar Imam,Iran,Middle East,30.4472068,49.0716096,27.5423248,52.554539
ARYA SASOL POLYMER CO,Pars Special Economic Energy Zone,Iran,Middle East,27.5139054,52.5758902,27.5423248,52.554539
Advanced Petrochemical Co,Marcus Hook,United States,North America,39.8192794,-75.4185272,27.0055321,49.551924
Advanced Petrochemical Co,Seadrift,United States,North America,28.4152807,-96.7135933,27.0055321,49.551924
Alpek SAB de CV,Anyang,China,Asia,36.097577,114.392392,25.6369466,-100.3613688
Alpek SAB de CV,Apple Grove,United States,North America,38.66508350000001,-82.1690337,35.08897290000001,-80.8471921
Alpek SAB de CV,Changzhou,China,Asia,31.811226,119.974061,25.6369466,-100.3613688
Alpek SAB de CV,Duque de Caxias,Brazil,Latin America and the Caribbean,-22.7862985,-43.3053106,-22.7862985,-43.3053106
Alpek SAB de CV,Geel,Belgium,Europe,51.16257,4.990839999999999,51.16257,4.990839999999999
Alpek SAB de CV,Karachi,Pakistan,Asia,24.8607343,67.0011364,25.6369466,-100.3613688
Alpek SAB de CV,Map Ta Phut,Thailand,Asia,12.713219,101.1685888,12.713219,101.1685888
Alpek SAB de CV,Schkopau,Germany,Europe,51.3900745,11.9851505,51.3900745,11.9851505
Alpek SAB de CV,Taoyuan,Taiwan,Asia,24.9936281,121.3009798,25.6369466,-100.3613688
Alpek SAB de CV,Yanbu,Saudi Arabia,Middle East,24.0231757,38.1899782,24.0231757,38.1899782
Amir Kabir Petrochemical Company,Bandar Imam,Iran,Middle East,30.447206799999996,49.071609599999995,30.4489847,49.0856115
Amir Kabir Petrochemical Company,Pars Special Economic Energy Zone,Iran,Middle East,27.5139054,52.5758902,35.774807,51.3759041
Amir Kabir Petrochemical Company,Rayong,Thailand,Asia,12.6813957,101.2816261,35.774807,51.3759041
Amir Kabir Petrochemical Company,Yangzhou,China,Asia,32.394209,119.412939,35.774807,51.3759041
Asahi Kasei Corp,Ichihara,Japan,Asia,35.4978821,140.1148672,35.5261313,139.7493764
Asahi Kasei Corp,Yokkaichi,Japan,Asia,34.9651064,136.6244121,34.87287250000001,136.5359515
BAKHTAR PETROCHEMICAL COMPANY,Bandar Imam,Iran,Middle East,30.4472068,49.0716096,33.4844109,48.2323525
BAKHTAR PETROCHEMICAL COMPANY,Dashe District,Taiwan,Asia,22.7377083,120.3608455,35.774807,51.3759041
BAKHTAR PETROCHEMICAL COMPANY,Haldia,India,Asia,22.0627164,88.0832934,35.774807,51.3759041
BANDAR IMAM PETROCHEMISTRY,Bandar Imam,Iran,Middle East,30.4472068,49.0716096,30.4439322,49.1065586
BANDAR IMAM PETROCHEMISTRY,Ilam,Iran,Middle East,33.6349736,46.415281,30.4439322,49.1065586
BANDAR IMAM PETROCHEMISTRY,Pancevo,Serbia,Greater Europe,44.874,20.6475673,30.4439322,49.1065586
"BAOSHENG POLYESTER JIANGSU CO., LTD.",Al Jubail,Saudi Arabia,Middle East,26.9597709,49.5687416,31.6492984,119.0449554
"BAOTA PETROCHEMICAL GROUP CO., LTD.",Port Harcourt,Nigeria,Africa,4.815554,7.0498442,38.4770945,106.2292733
"BAOTA PETROCHEMICAL GROUP CO., LTD.",Tver,Russian Federation,Russia and the Caspian,56.85872140000001,35.9175965,38.4770945,106.2292733
BASF SE,Fangshan,China,Asia,39.749144,116.143267,49.49501799999999,8.434130999999999
BEAULIEU INTERNATIONAL GROUP,Zhangjiagang,China,Asia,31.875572,120.556005,50.87179829999999,3.4462146
BILLION INDUSTRIAL HLDGS LTD,Gelsenkirchen,Germany,Greater Europe,51.517744,7.085717199999999,22.280906,114.173787
BOREALIS AG,Aliaga,Turkey,Greater Europe,38.799561,26.97074,41.058421,29.0028461
BOREALIS AG,Antwerp,Belgium,Greater Europe,51.2194475,4.4024643,51.2408149,4.314137
BOREALIS AG,Bandar Imam,Iran,Middle East,30.4472068,49.0716096,24.4600499,54.3917717
BOREALIS AG,Cartagena,Colombia,Latin America and the Caribbean,10.3932277,-75.4832311,24.4600499,54.3917717
BOREALIS AG,Cologne,Germany,Greater Europe,50.937531,6.9602786,48.197681,12.838838
BOREALIS AG,Daesan,South Korea,Asia,36.9395813,126.4343234,24.4600499,54.3917717
BOREALIS AG,Dahej,India,Asia,21.7129335,72.58200900000001,48.2346349,16.4206907
BOREALIS AG,Dunkerque,France,Greater Europe,51.0343684,2.3767763,51.0361711,2.400601
BOREALIS AG,Frankfurt,Germany,Greater Europe,50.1109221,8.6821267,48.197681,12.838838
BOREALIS AG,Gelsenkirchen,Germany,Greater Europe,51.51774400000001,7.0857171999999995,48.197681,12.838838
BOREALIS AG,Golmud,China,Asia,36.40640399999999,94.928484,48.2346349,16.4206907
BOREALIS AG,Gonfreville l'Orcher,France,Greater Europe,49.502579,0.233079,49.4195303,1.0323854
BOREALIS AG,Harbin,China,Asia,45.80377499999999,126.534967,48.2346349,16.4206907
BOREALIS AG,Kalush,Ukraine,Greater Europe,49.0414259,24.3950384,48.2346349,16.4206907
BOREALIS AG,La Porte,United States,North America,29.6657838,-95.0193728,48.2346349,16.4206907
BOREALIS AG,Lepetkata,India,Asia,27.4034788,94.88099849999999,48.2346349,16.4206907
BOREALIS AG,Nghi Son,Vietnam,Asia,19.3286153,105.8202234,24.4600499,54.3917717
BOREALIS AG,Ningdong,China,Asia,38.16443,106.586163,48.2346349,16.4206907
BOREALIS AG,Oberhausen,Germany,Greater Europe,51.4963341,6.863776499999999,48.197681,12.838838
BOREALIS AG,Ordos,China,Asia,39.608266,109.781327,48.2346349,16.4206907
BOREALIS AG,Pancevo,Serbia,Greater Europe,44.874,20.6475673,48.2346349,16.4206907
BOREALIS AG,Paradip,India,Asia,20.3165523,86.6113628,48.2346349,16.4206907
BOREALIS AG,Paulinia,Brazil,Latin America and the Caribbean,-22.7409594,-47.174281,-23.0638942,-46.8490505
BOREALIS AG,Plaquemine,United States,North America,30.2890833,-91.23427439999999,48.2346349,16.4206907
BOREALIS AG,Schkopau,Germany,Greater Europe,51.3900745,11.985150499999998,48.197681,12.838838
BOREALIS AG,Urumqi,China,Asia,43.825592,87.61684799999999,48.2346349,16.4206907
BOREALIS AG,Wesseling,Germany,Greater Europe,50.8255624,6.9725385,48.197681,12.838838
BOREALIS AG,Yulin,China,Asia,22.654032,110.18122,48.2346349,16.4206907
BOREALIS AG,Zaozhuang,China,Asia,34.810487,117.323725,48.2346349,16.4206907
BRAHMAPUTRA CRACKER & POLYME,Alexandria,Egypt,Africa,31.2000924,29.9187387,26.191494,91.75334029999999
BRAHMAPUTRA CRACKER & POLYME,Cangzhou,China,Asia,38.30447700000001,116.838834,27.367468,94.8857804
BRAHMAPUTRA CRACKER & POLYME,Ruwais,United Arab Emirates,Middle East,24.0944621,52.7346371,27.367468,94.8857804
BRAHMAPUTRA CRACKER & POLYME,Shijiazhuang,China,Asia,38.042805,114.514893,27.367468,94.8857804
BRAHMAPUTRA CRACKER & POLYME,Tobolsk,Russian Federation,Greater Europe,58.2227256,68.2777646,27.367468,94.8857804
Beijing Huamei,Anasaka,Japan,Asia,35.6710403,139.7345469,34.7793757,113.2958033
Beijing Organics,Daesan,South Korea,Asia,36.9395813,126.4343234,39.9599525,116.4452171
Braskem SA,Alexandria,Egypt,Africa,31.2000924,29.9187387,-9.635186,-35.7483121
Braskem SA,Anning,China,Asia,24.919493,102.478494,-9.635186,-35.7483121
Braskem SA,Barrancabermeja,Colombia,Latin America and the Caribbean,7.0617085,-73.8519319,-23.6420529,-46.4876408
Braskem SA,Beringen,Belgium,Greater Europe,51.04793,5.21862,51.9209215,4.4811175
Braskem SA,Berre,France,Greater Europe,43.4757729,5.167309,-9.635186,-35.7483121
Braskem SA,Camacari,Brazil,Latin America and the Caribbean,-12.697177600000002,-38.3331983,-12.6632216,-38.3284191
Braskem SA,Carrington,United Kingdom,Greater Europe,53.4334046,-2.3851324,51.9234395,4.4746054
Braskem SA,Changzhou,China,Asia,31.811226,119.974061,-9.635186,-35.7483121
Braskem SA,Cubatao,Brazil,Latin America and the Caribbean,-23.8916151,-46.4244141,-23.8563112,-46.4135777
Braskem SA,Daesan,South Korea,Asia,36.9395813,126.4343234,-9.635186,-35.7483121
Braskem SA,Duque de Caxias,Brazil,Latin America and the Caribbean,-22.7862985,-43.30531059999999,-22.7152182,-43.2401768
Braskem SA,El Tablazo,Venezuela,Latin America and the Caribbean,10.7487365,-71.5245614,-9.635186,-35.7483121
Braskem SA,Feluy,Belgium,Greater Europe,50.562207,4.250265,51.9209215,4.4811175
Braskem SA,Ferrara,Italy,Greater Europe,44.8381237,11.619787,-9.635186,-35.7483121
Braskem SA,Gelsenkirchen,Germany,Greater Europe,51.517744,7.085717199999999,50.8416237,6.947609000000001
Braskem SA,Huainan,China,Asia,32.625478,116.999932,-9.635186,-35.7483121
Braskem SA,Huizhou,China,Asia,23.112257,114.415801,-9.635186,-35.7483121
Braskem SA,Jiaxing,China,Asia,30.753924,120.758543,-9.635186,-35.7483121
Braskem SA,Knapsack,Germany,Greater Europe,50.8621159,6.843788300000001,50.8416237,6.947609000000001
Braskem SA,Lillebonne,France,Greater Europe,49.5188773,0.5344584,51.9209215,4.4811175
Braskem SA,Mangalore,India,Asia,12.9141417,74.8559568,-9.635186,-35.7483121
Braskem SA,Maoming,China,Asia,21.662991,110.925439,-9.635186,-35.7483121
Braskem SA,Maua,Brazil,Latin America and the Caribbean,-23.666558,-46.4599145,-23.6409264,-46.46664810000001
Braskem SA,Moerdijk,Netherlands,Greater Europe,51.70181669999999,4.6273499,51.9209215,4.4811175
Braskem SA,Ningdong,China,Asia,38.16443,106.586163,-9.635186,-35.7483121
Braskem SA,Ordos,China,Asia,39.608266,109.781327,-9.635186,-35.7483121
Braskem SA,Santo Andre,Brazil,Latin America and the Caribbean,-23.6742228,-46.543600299999994,-23.6420529,-46.4876408
Braskem SA,Sarralbe,France,Greater Europe,48.99963899999999,7.029931,51.9209215,4.4811175
Braskem SA,Schwechat,Austria,Greater Europe,48.1409268,16.4763778,51.39335759999999,11.9569539
Braskem SA,Triunfo,Brazil,Latin America and the Caribbean,-29.938070599999975,-51.7153171,-29.8872356,-51.3918975
Braskem SA,Ulsan,South Korea,Asia,35.5383773,129.3113596,-9.635186,-35.7483121
Braskem SA,Weinan,China,Asia,34.49938,109.502882,-9.635186,-35.7483121
Braskem SA,Wesseling,Germany,Greater Europe,50.8255624,6.972538500000001,50.8416237,6.947609000000001
Braskem SA,Yeosu,South Korea,Asia,34.7603737,127.6622221,-9.635186,-35.7483121
Braskem SA,Yulin,China,Asia,22.654032,110.18122,-9.635186,-35.7483121
Braskem SA,Zulia Zarate,Venezuela,Latin America and the Caribbean,10.2910237,-72.1416132,-9.635186,-35.7483121
CHEVRON PHILLIPS SINGAPORE CHEMICALS (PRIVATE) LIMITED,Baotou,China,Asia,40.65797800000001,109.840313,1.2619451,103.7209232
CHEVRON PHILLIPS SINGAPORE CHEMICALS (PRIVATE) LIMITED,Huizhou,China,Asia,23.112257,114.415801,22.278509,114.169097
"CHINA ENERGY INVESTMENT GROUP CO., LTD.",Budyonnovsk,Russian Federation,Greater Europe,44.7977007,44.1590538,22.279459,114.163343
"CHINA ENERGY INVESTMENT GROUP CO., LTD.",Dongying,China,Asia,37.43396300000001,118.674614,39.133174,117.172084
"CHINA ENERGY INVESTMENT GROUP CO., LTD.",Heze,China,Asia,35.23375,115.480656,39.133174,117.172084
"CHINA ENERGY INVESTMENT GROUP CO., LTD.",Jiaxing,China,Asia,30.753924,120.758543,31.1988267,121.3930314
"CHINA ENERGY INVESTMENT GROUP CO., LTD.",Kungrad District,Uzbekistan,Greater Europe,43.4283946,57.1885966,39.133174,117.172084
"CHINA ENERGY INVESTMENT GROUP CO., LTD.",Pata,India,Asia,26.6564041,79.49007379999999,22.279459,114.163343
"CHINA ENERGY INVESTMENT GROUP CO., LTD.",Qingdao,China,Asia,36.067108,120.382609,39.133174,117.172084
"CHINA ENERGY INVESTMENT GROUP CO., LTD.",Salavat,Russian Federation,Greater Europe,53.38604369999999,55.9259472,22.279459,114.163343
"CHINA ENERGY INVESTMENT GROUP CO., LTD.",Shanghai City,China,Asia,31.230416,121.473701,31.1988267,121.3930314
"CHINA ENERGY INVESTMENT GROUP CO., LTD.",Shenyang,China,Asia,41.805699,123.431472,39.133174,117.172084
"CHINA ENERGY INVESTMENT GROUP CO., LTD.",Ufa,Russian Federation,Greater Europe,54.73479099999999,55.9578555,22.279459,114.163343
CHINA RESOURCES (HOLDINGS) COMPANY LIMITED,Al Jubail,Saudi Arabia,Middle East,26.9597709,49.5687416,22.280164,114.175404
CHINA RESOURCES (HOLDINGS) COMPANY LIMITED,Gelsenkirchen,Germany,Greater Europe,51.517744,7.085717199999999,22.280164,114.175404
CHINA RESOURCES (HOLDINGS) COMPANY LIMITED,Yanbu,Saudi Arabia,Middle East,24.0231757,38.1899782,22.280164,114.175404
CNOOC Ltd,Fangshan,China,Asia,39.749144,116.143267,39.925318,116.430535
CNOOC Ltd,Kazan,Russian Federation,Greater Europe,55.7878944,49.1233294,22.279062,114.161499
CNOOC Ltd,Nanjing,China,Asia,32.060255,118.796877,32.298449,119.855026
CNOOC Ltd,Rizhao,China,Asia,35.416734,119.526925,22.279062,114.161499
COFCO TUNHE SUGAR CO LTD-A,Jurong Island,Singapore,Asia,1.2759631,103.6767958,1.2759631,103.6767958
"Cangzhou Huahai Refinery and Petrochemical Co.,Ltd",Quanzhou,China,Asia,24.874132,118.675675,38.334258,116.873336
Celanese Corp,Edmonton,Canada,North America,53.5461245,-113.4938229,53.5404518,-113.4092706
Celanese Corp,Fort Saskatchewan,Canada,North America,53.6963182,-113.2163764,37.3499807,-80.76527039999999
Celanese Corp,Nilai,Malaysia,Asia,2.802455,101.7988711,1.255997,103.704233
Celanese Corp,Otake,Japan,Asia,34.2376953,132.2221691,1.255997,103.704233
Celanese Corp,Pasadena,United States,North America,34.1477849,-118.1445155,32.871208,-96.943557
Chandra Asri Petrochemical Tbk,Al Jubail,Saudi Arabia,Middle East,26.9597709,49.5687416,-6.1972192,106.7984166
Chandra Asri Petrochemical Tbk,"Columbia,SC",United States,North America,34.0007104,-81.0348144,-6.1972192,106.7984166
Chandra Asri Petrochemical Tbk,Nhon Trach,Vietnam,Asia,10.6968843,106.8907696,-6.1972192,106.7984166
Chandra Asri Petrochemical Tbk,Ordos,China,Asia,39.608266,109.781327,-6.1972192,106.7984166
Chandra Asri Petrochemical Tbk,San Roque,Spain,Europe,36.2104615,-5.384431699999999,-6.0364727,105.9322052
Chandra Asri Petrochemical Tbk,Shuaiba City,Kuwait,Middle East,28.96126049999999,48.1172091,-6.1972192,106.7984166
Chandra Asri Petrochemical Tbk,Sohar,Oman,Middle East,24.3500672,56.71332580000001,-6.1972192,106.7984166
Chandra Asri Petrochemical Tbk,Yeosu,South Korea,Asia,34.7603737,127.6622221,-6.0364727,105.9322052
Changyi Petrochemical,Pinghu,China,Asia,30.677233,121.015142,36.8376133,119.3652091
Chevron Corp,Anasaka,Japan,Asia,35.6710403,139.7345469,35.3419158,-119.1088167
Chevron Corp,Cedar Bayou,United States,North America,29.7818838,-94.9216,29.7587819,-95.3707216
Chevron Corp,Daesan,South Korea,Asia,36.9395813,126.4343234,35.3419158,-119.1088167
Chevron Corp,Daqing,China,Asia,46.589309,125.103784,35.3419158,-119.1088167
Chevron Corp,Huizhou,China,Asia,23.112257,114.415801,35.3419158,-119.1088167
Chevron Corp,La Porte,United States,North America,29.6657838,-95.0193728,29.7587819,-95.3707216
Chevron Corp,Lake Charles,United States,North America,30.2265949,-93.2173758,30.236861,-93.194361
Chevron Corp,Mesaieed,Qatar,Middle East,24.9909255,51.5493483,26.4013504,50.1699548
Chevron Corp,Orange,United States,North America,33.7879139,-117.8531007,33.7495027,-117.853733
Chevron Corp,Pasadena,United States,North America,34.1477849,-118.14451549999998,34.1355059,-118.1467443
Chevron Corp,Point Comfort,United States,North America,28.6797169,-96.56025369999999,29.7587819,-95.3707216
Chevron Corp,Ruwais,United Arab Emirates,Middle East,24.0944621,52.7346371,27.038174,49.56911720000001
Chevron Corp,Ulsan,South Korea,Asia,35.5383773,129.3113596,35.3419158,-119.1088167
China Coal Energy Co Ltd,Changzhou,China,Asia,31.811226,119.974061,35.38957920000001,119.5321432
China Coal Energy Co Ltd,Dahej,India,Asia,21.7129335,72.58200900000001,35.38957920000001,119.5321432
China Coal Energy Co Ltd,Jamnagar,India,Asia,22.4707019,70.05773,35.38957920000001,119.5321432
China Coal Energy Co Ltd,Kungrad District,Uzbekistan,Greater Europe,43.4283946,57.1885966,35.393973,119.5493323
China Coal Energy Co Ltd,Nanchong,China,Asia,30.837793,106.110698,35.38957920000001,119.5321432
China Coal Energy Co Ltd,Ningdong,China,Asia,38.16443,106.586163,38.482942,106.222553
China Coal Energy Co Ltd,Pizhou,China,Asia,34.338888,118.012531,34.82317099999999,117.1615
China Coal Energy Co Ltd,Shurtan,Uzbekistan,Greater Europe,38.45807569999999,65.8055325,35.393973,119.5493323
China Coal Energy Co Ltd,Sumgait,Azerbaijan,Greater Europe,40.5854765,49.6317411,35.393973,119.5493323
China Coal Energy Co Ltd,Weifang,China,Asia,36.706962,119.161748,35.38957920000001,119.5321432
China National Petroleum Corp,Mendoza,Argentina,Latin America and the Caribbean,-32.8894587,-68.8458386,-6.2271223,106.826418
China Petroleum & Chemical Corp,Al Jubail,Saudi Arabia,Middle East,26.9597709,49.5687416,26.3393196,50.18542309999999
China Petroleum & Chemical Corp,Aliaga,Turkey,Greater Europe,38.799561,26.97074,4.02246,9.1954157
China Petroleum & Chemical Corp,Altona,Australia,Oceania,-37.8631512,144.8120218,22.280906,114.173787
China Petroleum & Chemical Corp,Arak,Iran,Middle East,34.0953553,49.7013486,33.9908519,71.5953214
China Petroleum & Chemical Corp,Bandar Imam,Iran,Middle East,30.447206799999996,49.0716096,29.3170683,47.6128149
China Petroleum & Chemical Corp,Batangas City,Philippines,Asia,13.7564651,121.0583076,22.280906,114.173787
China Petroleum & Chemical Corp,Bratislava,Slovakia,Greater Europe,48.1485965,17.1077478,4.02246,9.1954157
China Petroleum & Chemical Corp,Budyonnovsk,Russian Federation,Greater Europe,44.7977007,44.1590538,4.02246,9.1954157
China Petroleum & Chemical Corp,Cilegon,Indonesia,Asia,-6.0186817,106.0558218,-6.2271223,106.826418
China Petroleum & Chemical Corp,Cosoleacaque,Mexico,North America,17.9956998,-94.6372866,39.925395,116.436337
China Petroleum & Chemical Corp,Daesan,South Korea,Asia,36.9395813,126.4343234,32.081731,118.7419743
China Petroleum & Chemical Corp,Dahej,India,Asia,21.7129335,72.58200900000001,33.9908519,71.5953214
China Petroleum & Chemical Corp,Dushanzi,China,Asia,44.328095,84.886974,33.9908519,71.5953214
China Petroleum & Chemical Corp,Fangshan,China,Asia,39.749144,116.143267,39.9516518,116.3883137
China Petroleum & Chemical Corp,Freeport,United States,North America,43.8570065,-70.1031201,4.02246,9.1954157
China Petroleum & Chemical Corp,Gumi,South Korea,Asia,36.119485,128.3445734,32.081731,118.7419743
China Petroleum & Chemical Corp,Haldia,India,Asia,22.0627164,88.0832934,22.280906,114.173787
China Petroleum & Chemical Corp,Hazira,India,Asia,21.1784184,72.6587856,33.9908519,71.5953214
China Petroleum & Chemical Corp,Ho Chi Minh City,Vietnam,Asia,10.8230989,106.6296638,10.7738405,106.7033977
China Petroleum & Chemical Corp,Ichihara,Japan,Asia,35.4978821,140.1148672,31.850677,117.26718
China Petroleum & Chemical Corp,Jurong Island,Singapore,Asia,1.2759631,103.6767958,1.2730838,103.7138911
China Petroleum & Chemical Corp,Khouzestan,Iran,Middle East,31.4360149,49.041312,29.3170683,47.6128149
China Petroleum & Chemical Corp,Lepetkata,India,Asia,27.4034788,94.88099849999999,22.280906,114.173787
China Petroleum & Chemical Corp,Liaoyang,China,Asia,41.267244,123.236944,40.6423852,122.1821448
China Petroleum & Chemical Corp,Map Ta Phut,Thailand,Asia,12.713219,101.1685888,22.280906,114.173787
China Petroleum & Chemical Corp,Mariveles,Philippines,Asia,14.4929411,120.5048792,22.280906,114.173787
China Petroleum & Chemical Corp,Moscow,Russian Federation,Greater Europe,55.755826,37.6172999,4.02246,9.1954157
China Petroleum & Chemical Corp,Nanjing,China,Asia,32.060255,118.796877,32.081731,118.7419743
China Petroleum & Chemical Corp,Ningbo,China,Asia,29.868336,121.54399,31.212641,121.418703
China Petroleum & Chemical Corp,Ningdong,China,Asia,38.16443,106.586163,34.765778,111.212385
China Petroleum & Chemical Corp,Nizhnekamsk,Russian Federation,Greater Europe,55.613196,51.8469974,22.280906,114.173787
China Petroleum & Chemical Corp,Odzaci,Serbia,Greater Europe,45.5146587,19.2762516,4.02246,9.1954157
China Petroleum & Chemical Corp,Omsk,Russian Federation,Greater Europe,54.9913545,73.3645204,22.280906,114.173787
China Petroleum & Chemical Corp,Panipat,India,Asia,29.3909464,76.9635023,33.9908519,71.5953214
China Petroleum & Chemical Corp,Pars Special Economic Energy Zone,Iran,Middle East,27.5139054,52.5758902,24.4869712,54.4039371
China Petroleum & Chemical Corp,Plock,Poland,Greater Europe,52.5463446,19.7065364,4.02246,9.1954157
China Petroleum & Chemical Corp,Port Said City,Egypt,Africa,31.2652893,32.3018661,4.02246,9.1954157
China Petroleum & Chemical Corp,Pulau Ayer Merbau,Singapore,Asia,1.2677778,103.7163889,1.2730838,103.7138911
China Petroleum & Chemical Corp,Purwakarta,Indonesia,Asia,-6.540666499999999,107.4462717,-6.2271223,106.826418
China Petroleum & Chemical Corp,Puyang,China,Asia,35.761829,115.029215,34.897862,112.611965
China Petroleum & Chemical Corp,Rayong,Thailand,Asia,12.6813957,101.2816261,22.280906,114.173787
China Petroleum & Chemical Corp,Shanghai City,China,Asia,31.230416,121.473701,31.212641,121.418703
China Petroleum & Chemical Corp,Sumgait,Azerbaijan,Greater Europe,40.5854765,49.6317411,33.9908519,71.5953214
China Petroleum & Chemical Corp,Tainan,Taiwan,Asia,22.9997281,120.2270277,22.280906,114.173787
China Petroleum & Chemical Corp,Tobolsk,Russian Federation,Greater Europe,58.2227256,68.2777646,22.280906,114.173787
China Petroleum & Chemical Corp,Tomsk,Russian Federation,Greater Europe,56.4884295,84.9480469,22.280906,114.173787
China Petroleum & Chemical Corp,Turkmenbashi,Turkmenistan,Greater Europe,40.0336591,52.9759299,33.9908519,71.5953214
China Petroleum & Chemical Corp,Ulsan,South Korea,Asia,35.5383773,129.3113596,32.081731,118.7419743
China Petroleum & Chemical Corp,Urumqi,China,Asia,43.825592,87.61684799999999,22.280906,114.173787
China Petroleum & Chemical Corp,Weifang,China,Asia,36.706962,119.161748,39.9516518,116.3883137
China Petroleum & Chemical Corp,Wuhan,China,Asia,30.592849,114.305539,30.1989016,115.0250228
China Petroleum & Chemical Corp,Xuzhou,China,Asia,34.205768,117.284124,32.081731,118.7419743
China Petroleum & Chemical Corp,Yueyang,China,Asia,29.356803,113.12873,30.3228911,112.249996
China Petroleum & Chemical Corp,Yulin,China,Asia,22.654032,110.18122,22.280906,114.173787
China Petroleum & Chemical Corp,Zaozhuang,China,Asia,34.810487,117.323725,32.081731,118.7419743
China Petroleum & Chemical Corp,Zibo,China,Asia,36.813546,118.055019,39.9516518,116.3883137
China Petroleum Engineering Corporation,Tangerang,Indonesia,Asia,-6.1701796,106.6403236,-6.2271223,106.826418
Chiripal Poly Films,Geleen,Netherlands,Greater Europe,50.9672139,5.8277247,22.8342608,72.608925
DAQING HUAKE COMPANY LTD -A,Bandar Imam,Iran,Middle East,30.4472068,49.0716096,46.5720432,125.1545985
"DATANG ENERGY CHEMICAL CO., LTD.",Navodari,Romania,Greater Europe,44.341052,28.6455428,42.0025168,121.6218382
"DRAGON SPECIAL RESIN (XIAMEN) CO., LTD.",Al Jubail,Saudi Arabia,Middle East,26.9597709,49.5687416,24.4851411,118.0083982
Daelim Industrial Co Ltd,Jurong Island,Singapore,Asia,1.2759631,103.6767958,1.2744583,103.8423936
Daelim Industrial Co Ltd,Kawasaki,Japan,Asia,35.5308325,139.7029125,1.2744583,103.8423936
Daelim Industrial Co Ltd,Lin Yuan,Taiwan,Asia,22.4986756,120.4011911,1.2744583,103.8423936
Daelim Industrial Co Ltd,Oita,Japan,Asia,33.2396084,131.6095148,1.2744583,103.8423936
Daelim Industrial Co Ltd,Ulsan,South Korea,Asia,35.5383773,129.3113596,35.8327224,128.7385799
Dhunseri Ventures Ltd,Al Jubail,Saudi Arabia,Middle East,26.9597709,49.5687416,22.5408931,88.35265559999999
Dhunseri Ventures Ltd,Cedar Bayou,United States,North America,29.7818838,-94.9216,22.5408931,88.35265559999999
Dongfang Hongye Chemical,Ordos,China,Asia,39.608266,109.781327,37.047259,119.048286
Dongming Petrochemical Group,Dongguan,China,Asia,23.020673,113.751799,35.351852,115.125197
Dow Inc,Bahia Blanca,Argentina,Latin America and the Caribbean,-38.7183177,-62.2663478,-38.7674335,-62.28693949999999
Dow Inc,Baton Rouge,United States,North America,30.4514677,-91.18714659999999,30.3222203,-91.2523484
Dow Inc,Camacari,Brazil,Latin America and the Caribbean,-12.6971776,-38.3331983,-12.7646284,-38.4742355
Dow Inc,Daesan,South Korea,Asia,36.9395813,126.4343234,50.0722761,14.4373926
Dow Inc,Fort Saskatchewan,Canada,North America,53.6963182,-113.2163764,53.7484038,-113.2334413
Dow Inc,Freeport,United States,North America,43.8570065,-70.1031201,42.6977772,-71.2629654
Dow Inc,Hazira,India,Asia,21.1784184,72.6587856,20.3725315,72.9303504
Dow Inc,Ichihara,Japan,Asia,35.4978821,140.1148672,35.6226518,139.7488839
Dow Inc,Jurong Island,Singapore,Asia,1.2759631,103.6767958,1.2817871,103.8501398
Dow Inc,La Porte,United States,North America,29.6657838,-95.0193728,29.6462121,-95.0461607
Dow Inc,Lake Charles,United States,North America,30.2265949,-93.2173758,30.072003,-92.72549579999999
Dow Inc,Lanzhou,China,Asia,36.061089,103.834303,47.6556489,-122.3476482
Dow Inc,Lepetkata,India,Asia,27.4034788,94.88099849999999,50.0722761,14.4373926
Dow Inc,Litvinov,Czech Republic,Greater Europe,50.5984262,13.6102421,50.0722761,14.4373926
Dow Inc,Maoming,China,Asia,21.662991,110.925439,22.280182,114.173618
Dow Inc,Nagothane,India,Asia,18.5446161,73.13643569999999,17.5923577,73.4920916
Dow Inc,Orange,United States,North America,33.7879139,-117.8531007,33.6354722,-117.9323782
Dow Inc,Panjin,China,Asia,41.119997,122.070714,47.6556489,-122.3476482
Dow Inc,Pasadena,United States,North America,34.1477849,-118.1445155,34.0075191,-118.1157995
Dow Inc,Plaquemine,United States,North America,30.2890833,-91.23427439999999,30.3138928,-91.2406326
Dow Inc,Point Comfort,United States,North America,28.6797169,-96.56025369999999,28.5071669,-96.77552770000001
Dow Inc,Prentiss,Canada,North America,52.374781,-113.620298,52.38849519999999,-113.5999018
Dow Inc,Seadrift,United States,North America,28.4152807,-96.7135933,28.5071669,-96.77552770000001
Dow Inc,Shuaiba City,Kuwait,Middle East,28.96126049999999,48.1172091,50.0722761,14.4373926
Dow Inc,Taft,United States,North America,35.1424671,-119.4565078,35.1483544,-119.4728542
Dow Inc,Tangerang,Indonesia,Asia,-6.1701796,106.6403236,-6.2146495,106.8209139
Dow Inc,Tarragona,Spain,Greater Europe,41.1188827,1.2444909,41.1018478,1.1897446
Dow Inc,Terneuzen,Netherlands,Greater Europe,51.33228540000001,3.8324265,51.3339118,3.7894798
Dow Inc,Ulsan,South Korea,Asia,35.5383773,129.3113596,50.0722761,14.4373926
Dow Inc,Victoria,United States,North America,28.8052674,-97.0035982,28.5071669,-96.77552770000001
Dow Inc,Yeosu,South Korea,Asia,34.7603737,127.6622221,50.0722761,14.4373926
DuFor Resins,Haldia,India,Asia,22.0627164,88.0832934,51.9290981,6.1052067
EASTERN PETROCHEMICAL COMPANY,Al Jubail,Saudi Arabia,Middle East,26.9597709,49.5687416,27.05456,49.583315
EASTERN PETROCHEMICAL COMPANY,Plock,Poland,Greater Europe,52.5463446,19.7065364,27.05456,49.583315
EGYPTIAN PETROCHEMICALS HOLDING COMPANY,Ruwais,United Arab Emirates,Middle East,24.0944621,52.7346371,30.0296517,31.4558194
EQUATE FOR PETROCHEMICALS COMPANY KSC (CLOSED),Chocolate Bayou,United States,North America,29.3132939,-95.2521556,29.0249294,48.1257676
EQUATE FOR PETROCHEMICALS COMPANY KSC (CLOSED),Freeport,United States,North America,43.8570065,-70.1031201,29.0249294,48.1257676
EQUATE FOR PETROCHEMICALS COMPANY KSC (CLOSED),Kaiping,China,Asia,22.376395,112.698545,29.0908536,48.0872897
EQUATE FOR PETROCHEMICALS COMPANY KSC (CLOSED),Litvinov,Czech Republic,Greater Europe,50.5984262,13.6102421,29.0908536,48.0872897
EQUATE FOR PETROCHEMICALS COMPANY KSC (CLOSED),Mesaieed,Qatar,Middle East,24.9909255,51.5493483,29.0908536,48.0872897
EQUATE FOR PETROCHEMICALS COMPANY KSC (CLOSED),Shuaiba City,Kuwait,Middle East,28.96126049999999,48.1172091,29.0249294,48.1257676
EQUATE FOR PETROCHEMICALS COMPANY KSC (CLOSED),Tiszaujvaros,Hungary,Greater Europe,47.91598459999999,21.0427447,29.0908536,48.0872897
Ecopetrol SA,El Tablazo,Venezuela,Latin America and the Caribbean,10.7487365,-71.5245614,4.6241173,-74.0678356
Ecopetrol SA,Grangemouth,United Kingdom,Greater Europe,56.0097152,-3.7227698,9.975916699999999,-84.14208819999999
Ecopetrol SA,Tarragona,Spain,Greater Europe,41.1188827,1.2444909,9.975916699999999,-84.14208819999999
Eni SpA,Geleen,Netherlands,Greater Europe,50.9672139,5.8277247,51.2150976,6.756190999999999
Eni SpA,Meerhout,Belgium,Greater Europe,51.13218999999999,5.07708,51.2150976,6.756190999999999
Eni SpA,Stenungsund,Sweden,Greater Europe,58.0678388,11.8294345,41.8270511,12.4715209
Eni SpA,Tarragona,Spain,Greater Europe,41.1188827,1.2444909,41.29640300000001,2.022451
Eni SpA,Wilton,United Kingdom,Greater Europe,51.079018,-1.862598,51.2684596,-1.0804627
Exxon Mobil Corp,Al Jubail,Saudi Arabia,Middle East,26.9597709,49.5687416,25.3203067,51.5243769
Exxon Mobil Corp,Antwerp,Belgium,Greater Europe,51.2194475,4.4024643,50.8817896,4.4436049
Exxon Mobil Corp,Bahia Blanca,Argentina,Latin America and the Caribbean,-38.7183177,-62.2663478,39.7690158,-75.3828956
Exxon Mobil Corp,Baton Rouge,United States,North America,30.451467700000002,-91.18714659999999,30.4778842,-91.16894529999999
Exxon Mobil Corp,Baytown,United States,North America,29.7355047,-94.97742740000001,29.7562349,-94.9913253
Exxon Mobil Corp,Beaumont,United States,North America,30.080174,-94.1265562,30.0666243,-94.07619340000001
Exxon Mobil Corp,Binh Son,Vietnam,Asia,15.3166491,108.7838572,15.3923739,108.8200001
Exxon Mobil Corp,Cilegon,Indonesia,Asia,-6.0186817,106.0558218,-6.217441,106.812816
Exxon Mobil Corp,Daesan,South Korea,Asia,36.9395813,126.4343234,1.2647478,103.8192156
Exxon Mobil Corp,Dahej,India,Asia,21.7129335,72.58200900000001,19.0418242,72.8652558
Exxon Mobil Corp,Daqing,China,Asia,46.589309,125.103784,1.2647478,103.8192156
Exxon Mobil Corp,Gelsenkirchen,Germany,Greater Europe,51.517744,7.085717199999999,52.41025,9.81472
Exxon Mobil Corp,Heze,China,Asia,35.23375,115.480656,31.0199074,121.4480941
Exxon Mobil Corp,La Porte,United States,North America,29.6657838,-95.0193728,29.7562349,-94.9913253
Exxon Mobil Corp,Mont Belvieu,United States,North America,29.847722200000003,-94.89075799999999,29.7562349,-94.9913253
Exxon Mobil Corp,Munchsmunster,Germany,Greater Europe,48.7651018,11.6898582,52.41025,9.81472
Exxon Mobil Corp,Navodari,Romania,Greater Europe,44.341052,28.6455428,1.2647478,103.8192156
Exxon Mobil Corp,Panjin,China,Asia,41.119997,122.070714,1.2647478,103.8192156
Exxon Mobil Corp,Rabigh,Saudi Arabia,Middle East,22.7906701,39.0189623,30.0357057,31.2311566
Exxon Mobil Corp,Rosignano,Italy,Greater Europe,43.4066931,10.4621366,44.4003358,8.9157385
Exxon Mobil Corp,Ruwais,United Arab Emirates,Middle East,24.0944621,52.7346371,25.1888122,55.2562144
Exxon Mobil Corp,Sarnia,Canada,North America,42.974536,-82.4065901,42.9906557,-82.4495685
Exxon Mobil Corp,Shuaiba City,Kuwait,Middle East,28.96126049999999,48.1172091,25.3203067,51.5243769
Exxon Mobil Corp,Verbania,Italy,Europe,45.9283065,8.5553711,44.4003358,8.9157385
Exxon Mobil Corp,Wesseling,Germany,Greater Europe,50.8255624,6.9725385,52.41025,9.81472
Exxon Mobil Corp,Yeosu,South Korea,Asia,34.7603737,127.6622221,1.2647478,103.8192156
Exxon Mobil Corp,Yueyang,China,Asia,29.356803,113.12873,31.0199074,121.4480941
Far Eastern New Century Corp,Al Jubail,Saudi Arabia,Middle East,26.9597709,49.5687416,24.9133333,121.0454075
Far Eastern New Century Corp,Geleen,Netherlands,Greater Europe,50.9672139,5.8277247,24.9133333,121.0454075
Far Eastern New Century Corp,Gelsenkirchen,Germany,Greater Europe,51.517744,7.085717199999999,24.8252445,121.0573227
Far Eastern New Century Corp,Ho Chi Minh City,Vietnam,Asia,10.8230989,106.6296638,24.9133333,121.0454075
Far Eastern New Century Corp,Mesaieed,Qatar,Middle East,24.9909255,51.5493483,24.9133333,121.0454075
Far Eastern New Century Corp,Pulau Ayer Merbau,Singapore,Asia,1.2677778,103.7163889,24.9133333,121.0454075
Formosa Chemicals & Fibre Corporation (FCFC),Jurong Island,Singapore,Asia,1.2759631,103.6767958,25.057112,121.549533
Formosa Chemicals & Fibre Corporation (FCFC),Map Ta Phut,Thailand,Asia,12.713219,101.1685888,25.057112,121.549533
Formosa Plastics Corp,Baton Rouge,United States,North America,30.4514677,-91.18714659999999,30.5010133,-91.18573239999999
Formosa Plastics Corp,Daesan,South Korea,Asia,36.9395813,126.4343234,37.2003214,127.0958255
Formosa Plastics Corp,Feluy,Belgium,Greater Europe,50.562207,4.250265,40.7701797,-74.3623058
Formosa Plastics Corp,Ichihara,Japan,Asia,35.4978821,140.1148672,35.6817244,139.7776914
Formosa Plastics Corp,Jurong Island,Singapore,Asia,1.2759631,103.6767958,22.7053595,120.3356092
Formosa Plastics Corp,Kashima,Japan,Asia,35.9656835,140.6447937,22.7053595,120.3356092
Formosa Plastics Corp,Lake Charles,United States,North America,30.2265949,-93.2173758,30.5010133,-91.18573239999999
Formosa Plastics Corp,Lillo,Belgium,Greater Europe,51.30436,4.28026,40.7701797,-74.3623058
Formosa Plastics Corp,Map Ta Phut,Thailand,Asia,12.713219,101.1685888,13.7338702,100.4947757
Formosa Plastics Corp,Mariveles,Philippines,Asia,14.4929411,120.5048792,14.6208697,120.9772019
Formosa Plastics Corp,Otake,Japan,Asia,34.2376953,132.2221691,22.7053595,120.3356092
Formosa Plastics Corp,Point Comfort,United States,North America,28.6797169,-96.56025369999999,28.6975144,-96.5449333
Formosa Plastics Corp,Porvoo,Finland,Greater Europe,60.3931919,25.6652739,40.7701797,-74.3623058
Formosa Plastics Corp,Thessaloniki,Greece,Greater Europe,40.6400629,22.9444191,40.7701797,-74.3623058
Fude Energy,Al Jubail,Saudi Arabia,Middle East,26.9597709,49.5687416,29.60221799999999,52.59550489999999
Fude Energy,Xuzhou,China,Asia,34.205768,117.284124,35.0737665,117.1437771
Fufeng Chemical,Ordos,China,Asia,39.608266,109.781327,34.274491,107.953726
GAIL India Ltd,Al Jubail,Saudi Arabia,Middle East,26.9597709,49.5687416,26.1128327,91.7984932
GAIL India Ltd,Alexandria,Egypt,Africa,31.2000924,29.9187387,26.1128327,91.7984932
GAIL India Ltd,Cilegon,Indonesia,Asia,-6.0186817,106.0558218,26.1128327,91.7984932
GAIL India Ltd,Kawasaki,Japan,Asia,35.5308325,139.7029125,26.1128327,91.7984932
GAIL India Ltd,Khoramabad,Iran,Middle East,33.4646833,48.33896439999999,26.1128327,91.7984932
GAIL India Ltd,Map Ta Phut,Thailand,Asia,12.713219,101.1685888,26.1128327,91.7984932
GAIL India Ltd,Mizushima,Japan,Asia,36.637423,136.9056142,26.1128327,91.7984932
GAIL India Ltd,Qianjiang,China,Asia,30.402167,112.899762,26.1128327,91.7984932
GAIL India Ltd,Shijiazhuang,China,Asia,38.042805,114.514893,26.1128327,91.7984932
GAIL India Ltd,Tobolsk,Russian Federation,Greater Europe,58.2227256,68.2777646,26.1128327,91.7984932
GRAND RESOURCE COMPANY LIMITED,Durban,South Africa,Africa,-29.85868039999999,31.0218404,22.5647148,114.0989954
GRAND RESOURCE COMPANY LIMITED,Nhon Trach,Vietnam,Asia,10.6968843,106.8907696,22.5647148,114.0989954
GRUPO IDESA SA DE CV,Ulsan,South Korea,Asia,35.5383773,129.3113596,19.3885257,-99.2528138
GRUPO IDESA SA DE CV,Yeosu,South Korea,Asia,34.7603737,127.6622221,19.3885257,-99.2528138
GS CALTEX CORP,Anasaka,Japan,Asia,35.6710403,139.7345469,19.1154078,72.861369
GUANGQING GROUP CO LTD,Ordos,China,Asia,39.608266,109.781327,39.608266,109.781327
Gatron Industries Ltd,Mesaieed,Qatar,Middle East,24.9909255,51.5493483,25.047498,66.856262
Gazprom PJSC,Al Jubail,Saudi Arabia,Middle East,26.9597709,49.5687416,53.4798355,-2.2522509
Gazprom PJSC,Ulsan,South Korea,Asia,35.5383773,129.3113596,59.9329735,30.3034276
Gazprom PJSC,Yanbu,Saudi Arabia,Middle East,24.0231757,38.1899782,53.4798355,-2.2522509
Golriz Qom,Gelsenkirchen,Germany,Greater Europe,51.517744,7.085717199999999,34.7913141,50.8307612
Guangxi East Oil,Volos,Greece,Europe,39.366584,22.9506769,25.277954,110.2987605
"HEBEI HIGHWAY TRANSPORTATION FACILITIES GROUP CO.,LTD",Beaumont,United States,North America,30.080174,-94.1265562,30.080174,-94.1265562
"HENAN ENERGY AND CHEMICAL INDUSTRY GROUP CO., LTD.",Al Jubail,Saudi Arabia,Middle East,26.9597709,49.5687416,34.868684,113.643551
HIP-PETROHEMIJA AD PANCEVO,Gonfreville l'Orcher,France,Greater Europe,49.502579,0.233079,44.8363334,20.6728298
HIP-PETROHEMIJA AD PANCEVO,Lavera,France,Greater Europe,43.388073,5.030569,44.8363334,20.6728298
HIP-PETROHEMIJA AD PANCEVO,Sarralbe,France,Greater Europe,48.99963899999999,7.029931,44.8363334,20.6728298
HPCL-MITTAL ENERGY LIMITED,Map Ta Phut,Thailand,Asia,12.713219,101.1685888,28.5673595,77.31596689999999
Haldia Petrochemicals Ltd,Ichihara,Japan,Asia,35.4978821,140.1148672,22.0666394,88.11449429999999
Haldia Petrochemicals Ltd,Kawasaki,Japan,Asia,35.5308325,139.7029125,22.0666394,88.11449429999999
Haldia Petrochemicals Ltd,Map Ta Phut,Thailand,Asia,12.713219,101.1685888,22.0666394,88.11449429999999
Haldia Petrochemicals Ltd,Ningdong,China,Asia,38.16443,106.586163,22.0666394,88.11449429999999
Haldia Petrochemicals Ltd,Oita,Japan,Asia,33.2396084,131.6095148,22.0666394,88.11449429999999
Haldia Petrochemicals Ltd,Weinan,China,Asia,34.49938,109.502882,22.0666394,88.11449429999999
Haldia Petrochemicals Ltd,Yan'an,China,Asia,36.585445,109.489757,22.0666394,88.11449429999999
Hanwha Corp,Hazira,India,Asia,21.1784184,72.6587856,-6.2246951,106.8063866
Hanwha Corp,"Jen-wu, Kaohsiung",Taiwan,Asia,22.7057951,120.3423604,10.7782695,106.7069597
Hanwha Corp,Jurong Island,Singapore,Asia,1.2759631,103.6767958,1.2853992,103.8518407
Hanwha Corp,Lepetkata,India,Asia,27.4034788,94.88099849999999,-6.2246951,106.8063866
Hanwha Corp,Mailiao,Taiwan,Asia,23.7485306,120.2562662,10.7782695,106.7069597
Hanwha Corp,Nagothane,India,Asia,18.5446161,73.13643569999999,-6.2246951,106.8063866
Hanwha Corp,Pata,India,Asia,26.6564041,79.49007379999999,-6.2246951,106.8063866
Hanwha Corp,Qinzhou,China,Asia,21.979933,108.654146,-6.2246951,106.8063866
Hanwha Corp,Rayong,Thailand,Asia,12.6813957,101.2816261,13.5521553,100.7900146
Haoda Chemical,Kungrad District,Uzbekistan,Greater Europe,43.4283946,57.1885966,37.0668113,112.9725251
Hebei Jihexi,Nanjing,China,Asia,32.060255,118.796877,31.2974197,121.5036178
Hebei Zhongjie,Ichihara,Japan,Asia,35.4978821,140.1148672,40.379794,118.635809
Hellenic Petroleum SA,Daesan,South Korea,Asia,36.9395813,126.4343234,38.0402276,23.8041738
Hellenic Petroleum SA,Garyville,United States,North America,30.056035,-90.6192554,38.0402276,23.8041738
Hengfa Chemical,Ningdong,China,Asia,38.16443,106.586163,35.566345,116.379822
Hengxiang Chemical,Cilegon,Indonesia,Asia,-6.0186817,106.0558218,29.238809,119.433465
Heze Hengda Chemical,Weifang,China,Asia,36.706962,119.161748,35.5100516,115.5062079
Hipol a.d.,Sasolburg,South Africa,Africa,-26.8101899,27.8277254,45.5296194,19.2955563
Huabei Oilfield Jiujiu,Daesan,South Korea,Asia,36.9395813,126.4343234,36.9395813,126.4343234
Huaxing Petrochemical Group,Jiaxing,China,Asia,30.753924,120.758543,36.966035,118.552057
Hubei Jinao,Dumfries,United Kingdom,Europe,55.070859,-3.60512,30.266766,115.678965
Hunan Changsheng,Wuhan,China,Asia,30.592849,114.305539,29.5396442,113.3580934
Hyosung Corp,Anasaka,Japan,Asia,35.6710403,139.7345469,35.6651147,139.74694
Hyosung Corp,Edmonton,Canada,North America,53.5461245,-113.4938229,25.4868718,51.3905436
ILAM PETROCHEMICAL COMPANY,Ilam,Iran,Middle East,33.6349736,46.415281,33.7160999,46.2931305
ILAM PETROCHEMICAL COMPANY,Pars Special Economic Energy Zone,Iran,Middle East,27.5139054,52.5758902,33.7160999,46.2931305
INEOS LIMITED,Brindisi,Italy,Greater Europe,40.6327278,17.9417616,45.4703965,12.2314143
INEOS LIMITED,Cedar Bayou,United States,North America,29.7818838,-94.9216,29.7237259,-95.07410949999999
INEOS LIMITED,Clinton,United States,North America,39.6481768,-94.479976,41.4465119,-88.17493329999999
INEOS LIMITED,Daesan,South Korea,Asia,36.9395813,126.4343234,1.3004483,103.8376235
INEOS LIMITED,Dahej,India,Asia,21.7129335,72.58200900000001,21.6989844,72.5780921
INEOS LIMITED,Fuzhou,China,Asia,26.074478,119.296482,1.3004483,103.8376235
INEOS LIMITED,Geleen,Netherlands,Greater Europe,50.9672139,5.8277247,51.2369364,4.3207339
INEOS LIMITED,Grangemouth,United Kingdom,Greater Europe,56.0097152,-3.7227698,56.0120235,-3.691824199999999
INEOS LIMITED,La Porte,United States,North America,29.6657838,-95.0193728,29.7237259,-95.07410949999999
INEOS LIMITED,Matagorda,United States,North America,28.691133,-95.96827139999999,29.0559364,-95.3467537
INEOS LIMITED,Maua,Brazil,Latin America and the Caribbean,-23.666558,-46.4599145,51.49974419999999,-0.1620117
INEOS LIMITED,Old Ocean,United States,North America,29.0799726,-95.749673,29.0559364,-95.3467537
INEOS LIMITED,Triunfo,Brazil,Latin America and the Caribbean,-29.9380706,-51.7153171,51.49974419999999,-0.1620117
INEOS LIMITED,Wesseling,Germany,Greater Europe,50.8255624,6.9725385,51.0721608,6.8547205
INEOS LIMITED,Yan'an,China,Asia,36.585445,109.489757,51.49974419999999,-0.1620117
INEOS LIMITED,Yeosu,South Korea,Asia,34.7603737,127.6622221,1.3004483,103.8376235
INEOS LIMITED,Zibo,China,Asia,36.813546,118.055019,51.49974419999999,-0.1620117
"INNER MONGOLIA MANSHI COAL GROUP CO., LTD.","Jen-wu, Kaohsiung",Taiwan,Asia,22.7057951,120.3423604,39.372068,107.019608
"INNER MONGOLIA MANSHI COAL GROUP CO., LTD.",Ordos,China,Asia,39.608266,109.781327,39.8172928,110.0053149
"INNER MONGOLIA MANSHI COAL GROUP CO., LTD.",Ufa,Russian Federation,Greater Europe,54.73479099999999,55.9578555,39.8066481,109.956558
"INNER MONGOLIA MANSHI COAL GROUP CO., LTD.",Weifang,China,Asia,36.706962,119.161748,39.8277589,109.9781383
"INNER MONGOLIA MANSHI COAL GROUP CO., LTD.",Zarate,Argentina,Latin America and the Caribbean,-34.0957811,-59.0242302,39.8066481,109.956558
ISHIZUKA GLASS CO LTD,Yanbu,Saudi Arabia,Middle East,24.0231757,38.1899782,22.29798,114.175399
Ibn Zahr Saudi-European Petrochemical Company,Bayport,United States,North America,40.7384317,-73.0506656,27.0687111,49.570189
Ibn Zahr Saudi-European Petrochemical Company,Garyville,United States,North America,30.056035,-90.6192554,27.0687111,49.570189
Ibn Zahr Saudi-European Petrochemical Company,La Porte,United States,North America,29.6657838,-95.0193728,27.0687111,49.570189
Ibn Zahr Saudi-European Petrochemical Company,Point Comfort,United States,North America,28.6797169,-96.56025369999999,27.0687111,49.570189
Idemitsu Kosan Co Ltd,Fushun,China,Asia,41.880872,123.957208,34.360693,132.511522
Idemitsu Kosan Co Ltd,Huludao,China,Asia,40.71104,120.83694,34.360693,132.511522
Idemitsu Kosan Co Ltd,Lanzhou,China,Asia,36.061089,103.834303,10.7756569,106.705578
Idemitsu Kosan Co Ltd,Map Ta Phut,Thailand,Asia,12.713219,101.1685888,10.7756569,106.705578
Idemitsu Kosan Co Ltd,Qianguo,China,Asia,45.11803,124.823242,34.360693,132.511522
Idemitsu Kosan Co Ltd,Renqiu,China,Asia,38.683591,116.082917,34.360693,132.511522
Idemitsu Kosan Co Ltd,Songyuan,China,Asia,45.141789,124.825117,34.360693,132.511522
Idemitsu Kosan Co Ltd,Taizhou,China,Asia,28.65638,121.42076,34.360693,132.511522
Idemitsu Kosan Co Ltd,Yeosu,South Korea,Asia,34.7603737,127.6622221,34.360693,132.511522
Imperial Oil Ltd,Sarnia,Canada,North America,42.974536,-82.4065901,42.9547173,-82.41446119999999
Indian Oil Corp Ltd,Cangzhou,China,Asia,38.30447700000001,116.838834,22.5093958,88.3667533
Indian Oil Corp Ltd,Ichihara,Japan,Asia,35.4978821,140.1148672,26.243217,79.8542478
Indian Oil Corp Ltd,Map Ta Phut,Thailand,Asia,12.713219,101.1685888,22.5093958,88.3667533
Indian Oil Corp Ltd,Pengerang,Malaysia,Asia,1.3647023,104.1111109,22.5093958,88.3667533
Indorama Ventures PCL,Al Jubail,Saudi Arabia,Middle East,26.9597709,49.5687416,41.2781116,27.8178187
Indorama Ventures PCL,Altamira,Mexico,North America,22.4077462,-97.92115550000001,20.6334525,-100.4402344
Indorama Ventures PCL,Dagang,China,Asia,33.189192,120.103473,20.6334525,-100.4402344
Indorama Ventures PCL,"Decatur,AL",United States,North America,34.6059253,-86.9833417,34.6429424,-87.0531673
Indorama Ventures PCL,Freeport,United States,North America,43.8570065,-70.1031201,20.6334525,-100.4402344
Indorama Ventures PCL,Geleen,Netherlands,Greater Europe,50.9672139,5.8277247,51.96106589999999,4.1034733
Indorama Ventures PCL,Gumi,South Korea,Asia,36.119485,128.3445734,20.6334525,-100.4402344
Indorama Ventures PCL,Haldia,India,Asia,22.0627164,88.0832934,13.7402935,100.559654
Indorama Ventures PCL,Ipojuca,Brazil,Latin America and the Caribbean,-8.4627496,-35.0828588,-8.3763465,-35.0057449
Indorama Ventures PCL,Klaipeda,Lithuania,Europe,55.70329479999999,21.1442795,52.7123602,18.9640673
Indorama Ventures PCL,Mariveles,Philippines,Asia,14.4929411,120.5048792,-6.254058499999999,106.6399721
Indorama Ventures PCL,Pulau Ayer Merbau,Singapore,Asia,1.2677778,103.7163889,-6.254058499999999,106.6399721
Indorama Ventures PCL,Sasolburg,South Africa,Africa,-26.8101899,27.8277254,36.2017151,-5.4142446
Indorama Ventures PCL,Tobolsk,Russian Federation,Greater Europe,58.2227256,68.2777646,20.6334525,-100.4402344
Indorama Ventures PCL,Ulsan,South Korea,Asia,35.5383773,129.3113596,20.6334525,-100.4402344
Indorama Ventures PCL,Wilton,United Kingdom,Europe,51.079018,-1.862598,51.96106589999999,4.1034733
Indorama Ventures PCL,Wuhan,China,Asia,30.592849,114.305539,20.6334525,-100.4402344
Indorama Ventures PCL,Yanbu,Saudi Arabia,Middle East,24.0231757,38.1899782,41.2781116,27.8178187
JBF Industries Ltd,Dagang,China,Asia,33.189192,120.103473,21.1960576,72.8370715
JBF Industries Ltd,Jurong Island,Singapore,Asia,1.2759631,103.6767958,21.1960576,72.8370715
JG Summit Holdings Inc,Lepetkata,India,Asia,27.4034788,94.88099849999999,14.589521,121.059887
JG Summit Holdings Inc,Ordos,China,Asia,39.608266,109.781327,14.589521,121.059887
JG Summit Holdings Inc,Yanbu,Saudi Arabia,Middle East,24.0231757,38.1899782,14.589521,121.059887
"JIANGSU GPRO GROUP CO., LTD.",Rabigh,Saudi Arabia,Middle East,22.7906701,39.0189623,32.07120500000001,118.774234
"JIANGSU HAILUN PETROCHEMICAL CO., LTD.",Jiangyin,China,Asia,31.920658,120.284938,31.9278346,120.1014797
JIANGSU PENGCHENG GROUP CO L,Adana,Turkey,Europe,36.9914194,35.3308285,31.714418,120.127144
JIANGSU PENGCHENG GROUP CO L,Cooper River,United States,North America,32.7785099,-79.903976,31.714418,120.127144
"JIANGSU SAILBOAT PETROCHEMICAL CO., LTD.",Panipat,India,Asia,29.3909464,76.9635023,34.556625,119.612051
"JIANGSU SAILBOAT PETROCHEMICAL CO., LTD.",Salavat,Russian Federation,Greater Europe,53.38604369999999,55.9259472,34.556625,119.612051
"JIUTAI ENERGY MONGOLIA CO., LTD.",Bandar Imam,Iran,Middle East,30.4472068,49.0716096,30.4472068,49.0716096
"JIUTAI ENERGY MONGOLIA CO., LTD.",Budyonnovsk,Russian Federation,Greater Europe,44.7977007,44.1590538,44.7977007,44.1590538
"JIUTAI ENERGY MONGOLIA CO., LTD.",Kazan,Russian Federation,Greater Europe,55.7878944,49.1233294,55.7878944,49.1233294
JSC SOLNECHNOGORSK PLANT EUROPLAST,Ain Sokhna,Egypt,Africa,29.6724876,32.3369649,56.0733769,37.1237684
JXTG NIPPON OIL & ENERGY CORPORATION,Ningbo,China,Asia,29.868336,121.54399,1.2956014,103.8588258
JXTG NIPPON OIL & ENERGY CORPORATION,Quanzhou,China,Asia,24.874132,118.675675,1.2956014,103.8588258
Jam Petrochemical Company,Altamira,Mexico,North America,22.4077462,-97.92115550000001,35.7464543,51.4095766
Jam Petrochemical Company,Bandar Imam,Iran,Middle East,30.4472068,49.0716096,30.4756313,49.0790345
Jam Petrochemical Company,Pars Special Economic Energy Zone,Iran,Middle East,27.5139054,52.5758902,27.5479007,52.5527175
Jam Petrochemical Company,Ruwais,United Arab Emirates,Middle East,24.0944621,52.73463710000001,27.5479007,52.5527175
Jiangsu Huaneng Chemical,Dalian,China,Asia,38.91400300000001,121.614682,31.9078334,120.3541145
Jiangsu Tongli Chemical,Hub Chowki,Pakistan,Asia,25.0057964,66.82010919999999,31.3950525,119.8659045
Jiangsu Xusheng Petrochemical,Rabigh,Saudi Arabia,Middle East,22.7906701,39.0189623,32.26035,119.13833
KAP Industrial Holdings Ltd,Haining,China,Asia,30.510659,120.680757,-33.9801163,18.8408285
KAP Industrial Holdings Ltd,Lake Charles,United States,North America,30.2265949,-93.2173758,-33.9801163,18.8408285
KAP Industrial Holdings Ltd,Sasolburg,South Africa,Africa,-26.8101899,27.8277254,-33.9801163,18.8408285
KARPATNAFTOHIM TOV,Porvoo,Finland,Greater Europe,60.3931919,25.6652739,49.0830862,24.3127548
"KEIYO POLYETHYLENE CO.,LTD.",Map Ta Phut,Thailand,Asia,12.713219,101.1685888,12.6999465,101.1347889
KOCH INDUSTRIES INC,Geel,Belgium,Greater Europe,51.16257,4.990839999999999,51.5148975,-0.094029
KOCH INDUSTRIES INC,Gelsenkirchen,Germany,Greater Europe,51.517744,7.085717199999999,51.5148975,-0.094029
KOKSAN PET VE PLASTIK AMBALAJ SANAYI VE TICARET ANONIM SIRKETI,Wilton,United Kingdom,Greater Europe,51.079018,-1.862598,37.1654292,37.39466609999999
KPIC CORP,Haldia,India,Asia,22.0627164,88.0832934,43.2132082,-123.3588399
KPIC CORP,Ichihara,Japan,Asia,35.4978821,140.1148672,10.7731883,106.7009194
KPIC CORP,Takaishi,Japan,Asia,34.5207035,135.4424491,34.9864907,135.7609098
KPIC CORP,Tokuyama,Japan,Asia,34.0756731,131.8252971,34.9864907,135.7609098
KUWAIT PETROLEUM CORPORATION,Lianyungang,China,Asia,34.596653,119.221611,29.3546299,47.94167789999999
Kairi Chemical,Jiaxing,China,Asia,30.753924,120.758543,36.7571822,118.263134
Khartoum Petrochemical Company,Mendoza,Argentina,Latin America and the Caribbean,-32.8894587,-68.8458386,16.1288047,32.6811368
Kingcar Group,Map Ta Phut,Thailand,Asia,12.713219,101.1685888,13.770875,100.6121666
LALEH PETROCHEMICAL COMPANY,Bandar Imam,Iran,Middle East,30.4472068,49.0716096,30.4641044,49.0900626
LCY CHEMICAL CORP.,Map Ta Phut,Thailand,Asia,12.713219,101.1685888,22.7274228,120.3426441
LG Chem Ltd,Dahej,India,Asia,21.7129335,72.58200900000001,19.1204914,72.9090513
LG Chem Ltd,Haldia,India,Asia,22.0627164,88.0832934,22.5470993,88.370922
LG Chem Ltd,Ichihara,Japan,Asia,35.4978821,140.1148672,37.5281284,126.92985
LG Chem Ltd,Panipat,India,Asia,29.3909464,76.9635023,30.7203116,76.8142122
LG Chem Ltd,Vadodara,India,Asia,22.3071588,73.1812187,19.1204914,72.9090513
LUKOIL PJSC,Al Jubail,Saudi Arabia,Middle East,26.9597709,49.5687416,36.9693605,14.6141228
LUKOIL PJSC,Aubette,France,Greater Europe,48.58384479999999,7.7460697,36.9693605,14.6141228
LUKOIL PJSC,Notre Dame de Gravenchon,France,Greater Europe,49.48910799999999,0.567624,36.9693605,14.6141228
LUKOIL PJSC,Rabigh,Saudi Arabia,Middle East,22.7906701,39.0189623,36.9693605,14.6141228
LUKOIL PJSC,Ulsan,South Korea,Asia,35.5383773,129.3113596,55.76681499999999,37.636443
LUKOIL PJSC,Yeosu,South Korea,Asia,34.7603737,127.6622221,36.9693605,14.6141228
Langang,Ningbo,China,Asia,29.868336,121.54399,46.86394,12.88578
LeaLea Enterprise,Geleen,Netherlands,Greater Europe,50.9672139,5.8277247,50.9672139,5.8277247
Ledervin,Lake City,United States,North America,40.7607793,-111.8910474,-22.8485901,-47.160551
Linyi Wuhu Chemical,Ningdong,China,Asia,38.16443,106.586163,36.061089,103.834303
LinyiYishunChemical,Pasir Gudang,Malaysia,Asia,1.470288,103.9029689,1.470288,103.9029689
Lotte Chemical Corp,Al Jubail,Saudi Arabia,Middle East,26.9597709,49.5687416,24.7939654,67.3905642
Lotte Chemical Corp,Haldia,India,Asia,22.0627164,88.0832934,28.871578,76.666512
Lotte Chemical Corp,Huainan,China,Asia,32.625478,116.999932,30.603136,121.046526
Lotte Chemical Corp,Ichihara,Japan,Asia,35.4978821,140.1148672,30.2116413,-93.3092727
Lotte Chemical Corp,Kashima,Japan,Asia,35.9656835,140.6447937,30.2116413,-93.3092727
Lotte Chemical Corp,Ordos,China,Asia,39.608266,109.78132699999999,22.278827,114.170562
Lotte Chemical Corp,Pata,India,Asia,26.6564041,79.49007379999999,28.871578,76.666512
Lotte Chemical Corp,Pulau Ayer Merbau,Singapore,Asia,1.2677778,103.7163889,1.4450689,103.8943051
Lotte Chemical Corp,Silvassa,India,Asia,20.2753406,73.0072986,28.871578,76.666512
Lotte Chemical Corp,Takaishi,Japan,Asia,34.5207035,135.4424491,34.5207035,135.4424491
Lotte Chemical Corp,Xianyang,China,Asia,34.329605,108.708991,22.278827,114.170562
Lotte Chemical Corp,Yanbu,Saudi Arabia,Middle East,24.0231757,38.1899782,30.2116413,-93.3092727
Lotte Chemical Corp,Yulin,China,Asia,22.654032,110.18122,22.278827,114.170562
LyondellBasell Industries NV,Al Jubail,Saudi Arabia,Middle East,26.9597709,49.5687416,51.5095008,-0.1374129
LyondellBasell Industries NV,Bamble,Norway,Greater Europe,59.0030717,9.5785258,51.9250336,4.472943
LyondellBasell Industries NV,Berre,France,Greater Europe,43.4757729,5.167309,43.5045803,5.184167299999999
LyondellBasell Industries NV,Chocolate Bayou,United States,North America,29.3132939,-95.2521556,29.7561995,-95.3623983
LyondellBasell Industries NV,Clinton,United States,North America,39.6481768,-94.47997600000001,51.9250336,4.472943
LyondellBasell Industries NV,Dagang,China,Asia,33.189192,120.103473,51.9250336,4.472943
LyondellBasell Industries NV,Dahej,India,Asia,21.7129335,72.58200900000001,51.9250336,4.472943
LyondellBasell Industries NV,Dezhou,China,Asia,37.43409200000001,116.357464,51.9250336,4.472943
LyondellBasell Industries NV,Dunkerque,France,Greater Europe,51.0343684,2.3767763,51.5095008,-0.1374129
LyondellBasell Industries NV,Duque de Caxias,Brazil,Latin America and the Caribbean,-22.7862985,-43.3053106,-22.9342712,-45.3959807
LyondellBasell Industries NV,Ferrara,Italy,Greater Europe,44.8381237,11.619787,44.8592796,11.5946149
LyondellBasell Industries NV,Fuzhou,China,Asia,26.074478,119.296482,51.9250336,4.472943
LyondellBasell Industries NV,Geleen,Netherlands,Greater Europe,50.9672139,5.8277247,51.9250336,4.472943
LyondellBasell Industries NV,Gonfreville l'Orcher,France,Greater Europe,49.502579,0.233079,51.5095008,-0.1374129
LyondellBasell Industries NV,Heze,China,Asia,35.23375,115.480656,51.9250336,4.472943
LyondellBasell Industries NV,Jiujiang,China,Asia,29.705077,116.00193,51.9250336,4.472943
LyondellBasell Industries NV,Jurong Island,Singapore,Asia,1.2759631,103.6767958,1.6227371,103.6699752
LyondellBasell Industries NV,Kawasaki,Japan,Asia,35.5308325,139.7029125,51.5095008,-0.1374129
LyondellBasell Industries NV,La Cangrejera,Mexico,North America,18.0923018,-94.3603669,30.0603293,-94.0585036
LyondellBasell Industries NV,La Porte,United States,North America,29.665783799999996,-95.0193728,29.62867159999999,-95.0860933
LyondellBasell Industries NV,Lake Charles,United States,North America,30.2265949,-93.2173758,30.1906371,-93.32503799999999
LyondellBasell Industries NV,Lavera,France,Greater Europe,43.388073,5.030569,43.5045803,5.184167299999999
LyondellBasell Industries NV,Lillo,Belgium,Greater Europe,51.30436,4.28026,51.9250336,4.472943
LyondellBasell Industries NV,Maoming,China,Asia,21.662991,110.925439,51.9250336,4.472943
LyondellBasell Industries NV,Matagorda,United States,North America,28.691132999999997,-95.96827139999999,28.7856017,-95.9432602
LyondellBasell Industries NV,Maua,Brazil,Latin America and the Caribbean,-23.666558,-46.4599145,-22.9342712,-45.3959807
LyondellBasell Industries NV,Morris,United States,North America,40.8336038,-74.54632819999999,40.4903994,-74.3856097
LyondellBasell Industries NV,Ningdong,China,Asia,38.16443,106.586163,51.9250336,4.472943
LyondellBasell Industries NV,Oita,Japan,Asia,33.2396084,131.6095148,51.5095008,-0.1374129
LyondellBasell Industries NV,Pengzhou,China,Asia,30.990108,103.958014,51.9250336,4.472943
LyondellBasell Industries NV,Porvoo,Finland,Greater Europe,60.3931919,25.6652739,51.5095008,-0.1374129
LyondellBasell Industries NV,Qingyang,China,Asia,35.709077,107.643631,51.9250336,4.472943
LyondellBasell Industries NV,Rabigh,Saudi Arabia,Middle East,22.7906701,39.0189623,51.5095008,-0.1374129
LyondellBasell Industries NV,Rizhao,China,Asia,35.416734,119.526925,51.9250336,4.472943
LyondellBasell Industries NV,Ruwais,United Arab Emirates,Middle East,24.0944621,52.7346371,51.5095008,-0.1374129
LyondellBasell Industries NV,Seadrift,United States,North America,28.4152807,-96.7135933,28.79996689999999,-97.0098998
LyondellBasell Industries NV,Sines,Portugal,Greater Europe,37.9571555,-8.860890699999999,51.5095008,-0.1374129
LyondellBasell Industries NV,Tarragona,Spain,Greater Europe,41.1188827,1.2444909,41.1131535,1.1627352
LyondellBasell Industries NV,Ulsan,South Korea,Asia,35.5383773,129.3113596,51.5095008,-0.1374129
LyondellBasell Industries NV,Victoria,United States,North America,28.8052674,-97.0035982,28.79996689999999,-97.0098998
LyondellBasell Industries NV,Yanbu,Saudi Arabia,Middle East,24.0231757,38.1899782,51.5095008,-0.1374129
LyondellBasell Industries NV,Zibo,China,Asia,36.813546,118.055019,51.9250336,4.472943
LyondellBasell Industries NV,Zwijndrecht,Belgium,Greater Europe,51.2164116,4.3335905,51.9250336,4.472943
"MARUZEN PETROCHEMICAL CO.,LTD.",Map Ta Phut,Thailand,Asia,12.713219,101.1685888,12.713219,101.1685888
MEHR PETROCHEMICAL COMPLEX,Arak,Iran,Middle East,34.0953553,49.7013486,35.7303171,51.4154419
MOGILEVKHIMVOLOKNO OAO,Yanbu,Saudi Arabia,Middle East,24.0231757,38.1899782,53.8866014,30.3093663
MOL Hungarian Oil & Gas PLC,Al Jubail,Saudi Arabia,Middle East,26.9597709,49.5687416,47.473877,19.0521889
MOL Hungarian Oil & Gas PLC,Antwerp,Belgium,Greater Europe,51.2194475,4.4024643,47.473877,19.0521889
MOL Hungarian Oil & Gas PLC,Lepetkata,India,Asia,27.4034788,94.88099849999999,47.473877,19.0521889
MOL Hungarian Oil & Gas PLC,Meerhout,Belgium,Greater Europe,51.13218999999999,5.07708,47.473877,19.0521889
MOL Hungarian Oil & Gas PLC,Secunda,South Africa,Africa,-26.5157792,29.1913918,47.473877,19.0521889
MPI Polyester Industries,Mariveles,Philippines,Asia,14.4929411,120.5048792,3.0086222,101.5587789
Marun Petrochemical Company,Altamira,Mexico,North America,22.4077462,-97.92115550000001,30.4851514,49.094765
Marun Petrochemical Company,Bandar Imam,Iran,Middle East,30.4472068,49.0716096,30.4851514,49.094765
Marun Petrochemical Company,Carson,United States,North America,33.8316745,-118.281693,30.4851514,49.094765
Marun Petrochemical Company,Harsin,Iran,Middle East,34.2719149,47.6046183,30.4851514,49.094765
Marun Petrochemical Company,La Porte,United States,North America,29.6657838,-95.0193728,30.4851514,49.094765
Marun Petrochemical Company,Pars Special Economic Energy Zone,Iran,Middle East,27.5139054,52.5758902,30.4851514,49.094765
Meltem Kimya,Yanbu,Saudi Arabia,Middle East,24.0231757,38.1899782,36.9998836,35.1798967
Mesaieed Petrochemical Holding,Mesaieed,Qatar,Middle East,24.9909255,51.5493483,24.894074,51.54127159999999
Mitsubishi Chemical Holdings C,Al Jubail,Saudi Arabia,Middle East,26.9597709,49.5687416,39.951507,116.460516
Mitsubishi Chemical Holdings C,Corlu,Turkey,Europe,41.155812,27.8137319,41.0689,29.012914
Mitsubishi Chemical Holdings C,Daqing,China,Asia,46.589309,125.103784,39.951507,116.460516
Mitsubishi Chemical Holdings C,Dushanzi,China,Asia,44.328095,84.886974,39.951507,116.460516
Mitsubishi Chemical Holdings C,Jurong Island,Singapore,Asia,1.2759631,103.6767958,1.2832744,103.8508826
Mitsubishi Chemical Holdings C,Kashi,China,Asia,39.467685,75.99378999999999,39.951507,116.460516
Mitsubishi Chemical Holdings C,Map Ta Phut,Thailand,Asia,12.713219,101.1685888,13.72482,100.541607
Mitsubishi Chemical Holdings C,Pulau Ayer Merbau,Singapore,Asia,1.2677778,103.71638889999998,1.2832744,103.8508826
Mitsui Chemicals Inc,Al Jubail,Saudi Arabia,Middle East,26.9597709,49.5687416,13.7272404,100.5299918
Mitsui Chemicals Inc,Dalian,China,Asia,38.91400300000001,121.614682,38.973097,117.260881
Mitsui Chemicals Inc,Fushun,China,Asia,41.880872,123.957208,13.7272404,100.5299918
Mitsui Chemicals Inc,Ichihara,Japan,Asia,35.4978821,140.1148672,35.5003502,140.0474494
Mitsui Chemicals Inc,Lanzhou,China,Asia,36.061089,103.834303,13.7272404,100.5299918
Mitsui Chemicals Inc,Liaoyang,China,Asia,41.267244,123.236944,13.7272404,100.5299918
Mitsui Chemicals Inc,Map Ta Phut,Thailand,Asia,12.713219,101.1685888,13.7272404,100.5299918
Mitsui Chemicals Inc,Mesaieed,Qatar,Middle East,24.9909255,51.5493483,13.7272404,100.5299918
Mitsui Chemicals Inc,Pulau Ayer Merbau,Singapore,Asia,1.2677778,103.7163889,1.286097,103.7833283
Mitsui Chemicals Inc,Qinzhou,China,Asia,21.979933,108.654146,13.7272404,100.5299918
Mitsui Chemicals Inc,Wuhan,China,Asia,30.592849,114.305539,13.7272404,100.5299918
Mitsui Chemicals Inc,Xuzhou,China,Asia,34.205768,117.284124,13.7272404,100.5299918
Mitsui Chemicals Inc,Yeosu,South Korea,Asia,34.7603737,127.6622221,33.035206,130.457862
Mitsui Chemicals Inc,Yinchuan,China,Asia,38.487193,106.230908,13.7272404,100.5299918
NAFTAN OAO,Schwechat,Austria,Greater Europe,48.1409268,16.4763778,55.5235959,28.5560068
"NANJING JINLING PLASTIC AND PETROCHEMICAL CO., LTD.",Emmen,Netherlands,Europe,52.7132367,6.9557766,32.2582944,118.8242598
NATIONAL COMPANY KAZMUNAYGAZ JSC,Jiuquan,China,Asia,39.73287,98.494548,43.2480183,76.837049
NATIONAL COMPANY KAZMUNAYGAZ JSC,Porvoo,Finland,Greater Europe,60.3931919,25.6652739,60.3931919,25.6652739
NATIONAL COMPANY KAZMUNAYGAZ JSC,Rabigh,Saudi Arabia,Middle East,22.7906701,39.0189623,43.219631,76.84998569999999
NATIONAL PETROCHEMICAL COMPANY,Arak,Iran,Middle East,34.0953553,49.7013486,35.7637766,51.3953283
NATIONAL PETROCHEMICAL COMPANY,Bandar Imam,Iran,Middle East,30.4472068,49.0716096,30.4757266,49.0877255
NATIONAL PETROCHEMICAL COMPANY,Ordos,China,Asia,39.608266,109.781327,23.9983606,38.2361563
NATIONAL PETROCHEMICAL COMPANY,Pars Special Economic Energy Zone,Iran,Middle East,27.5139054,52.5758902,27.5938049,52.5166547
NATIONAL PETROCHEMICAL INDUSTRIAL COMPANY - NATPET,Baton Rouge,United States,North America,30.4514677,-91.18714659999999,23.9983606,38.2361563
NATIONAL PETROCHEMICAL INDUSTRIAL COMPANY - NATPET,Baytown,United States,North America,29.7355047,-94.97742740000001,23.9983606,38.2361563
NATIONAL PETROCHEMICAL INDUSTRIAL COMPANY - NATPET,Linden,United States,North America,40.6220478,-74.24459019999999,23.9983606,38.2361563
NAVID ZAR CHIMI INDUSTRIAL COMPANY,Bandar Imam,Iran,Middle East,30.4472068,49.0716096,30.5070607,49.0851701
NAVID ZAR CHIMI INDUSTRIAL COMPANY,La Porte,United States,North America,29.6657838,-95.0193728,40.9588146,29.0819434
NAVID ZAR CHIMI INDUSTRIAL COMPANY,Montreal,Canada,North America,45.5016889,-73.567256,40.9588146,29.0819434
NAVID ZAR CHIMI INDUSTRIAL COMPANY,Pars Special Economic Energy Zone,Iran,Middle East,27.5139054,52.5758902,29.6133666,52.4839593
NOVA CHEMICALS CORPORATION,Corunna,Canada,North America,42.8847497,-82.450903,42.880516,-82.40662379999999
NOVA CHEMICALS CORPORATION,Daesan,South Korea,Asia,36.9395813,126.4343234,51.078463,-114.017905
NOVA CHEMICALS CORPORATION,Joffre,Canada,North America,52.33450300000001,-113.535927,52.3082144,-113.5510143
NOVA CHEMICALS CORPORATION,Mooretown,Canada,North America,42.8418468,-82.46173639999999,51.078463,-114.017905
NOVAPET SA,"Columbia,SC",United States,North America,34.0007104,-81.0348144,41.65064,-0.8821
NPC Alliance Corporation,Ordos,China,Asia,39.608266,109.781327,14.5583,121.019307
NPC Alliance Corporation,Weinan,China,Asia,34.49938,109.502882,14.5583,121.019307
NUC CORPORATION,Map Ta Phut,Thailand,Asia,12.713219,101.1685888,13.7679287,100.1731166
Nan Ya Plastics Corp,Al Jubail,Saudi Arabia,Middle East,26.9597709,49.5687416,25.0513034,121.4152927
Nan Ya Plastics Corp,Map Ta Phut,Thailand,Asia,12.713219,101.1685888,29.3237245,-96.12016799999999
Nan Ya Plastics Corp,Rotterdam,Netherlands,Europe,51.9244201,4.4777326,33.8376701,-79.7633371
Nanchong Shida Chemical,Echizen,Japan,Asia,35.9034961,136.1687173,30.82541299999999,106.105833
National Industrialization Co,La Porte,United States,North America,29.6657838,-95.0193728,24.6933796,46.70137039999999
National Industrialization Co,Yanbu,Saudi Arabia,Middle East,24.0231757,38.1899782,23.9983606,38.2361563
National Oil Corporation of Libya,Eleme,Nigeria,Africa,4.7938534,7.1574784,32.8863334,13.1891762
National Petrochemical Co,La Porte,United States,North America,29.6657838,-95.0193728,23.9983606,38.2361563
National Petrochemical Co,Ruwais,United Arab Emirates,Middle East,24.0944621,52.7346371,24.7527861,46.6258762
National Petrochemical Co,Yanbu,Saudi Arabia,Middle East,24.0231757,38.1899782,23.9983606,38.2361563
NiPolypropyleneon Unipet,Pulau Ayer Merbau,Singapore,Asia,1.2677778,103.7163889,1.2677778,103.7163889
Ningxia Baofeng Energy Group C,Blagoveshchensk,Russian Federation,Russia and the Caspian,50.2660067,127.5356153,50.2660067,127.5356153
Ningxia Baofeng Energy Group C,Kaliningrad,Russian Federation,Russia and the Caspian,54.7104264,20.4522144,54.7104264,20.4522144
Ningxia Baofeng Energy Group C,Kazan,Russian Federation,Greater Europe,55.7878944,49.1233294,55.7878944,49.1233294
Ningxia Baofeng Energy Group C,Linyi,China,Asia,35.104673,118.356414,35.104673,118.356414
Ningxia Baofeng Energy Group C,Map Ta Phut,Thailand,Asia,12.713219,101.1685888,12.713219,101.1685888
Ningxia Baofeng Energy Group C,Wloclawek,Poland,Europe,52.6483303,19.0677357,52.6483303,19.0677357
Nizhnekamskneftekhim PJSC,Daesan,South Korea,Asia,36.9395813,126.4343234,36.9395813,126.4343234
Nizhnekamskneftekhim PJSC,Yanbu,Saudi Arabia,Middle East,24.0231757,38.1899782,55.61606769999999,51.9188762
Nizhnekamskneftekhim PJSC,Yeosu,South Korea,Asia,34.7603737,127.6622221,34.7603737,127.6622221
North Huajin Chemical Industri,Botany,Australia,Oceania,-33.9469267,151.1973167,19.9590219,73.7422702
North Huajin Chemical Industri,Burgas,Bulgaria,Greater Europe,42.50479259999999,27.4626361,41.1926981,121.9995269
North Huajin Chemical Industri,Litvinov,Czech Republic,Greater Europe,50.5984262,13.6102421,41.1926981,121.9995269
O'ZBEKNEFTEGAZ,Jamnagar,India,Asia,22.4707019,70.05773,41.3067724,69.2847161
O'ZBEKNEFTEGAZ,Mudanjiang,China,Asia,44.55165299999999,129.633168,41.3067724,69.2847161
O'ZBEKNEFTEGAZ,Ulsan,South Korea,Asia,35.5383773,129.3113596,41.3067724,69.2847161
OCTAL PETROCHEMICALS FZC,Al Jubail,Saudi Arabia,Middle East,26.9597709,49.5687416,16.9395173,53.9779541
OMAN OIL REFINERIES AND PETROLEUM INDUSTRIES COMPANY,Marcus Hook,United States,North America,39.8192794,-75.4185272,24.481832,56.6077805
ONGC Petro additions Ltd,Alexandria,Egypt,Africa,31.2000924,29.9187387,21.6947038,72.6333264
ONGC Petro additions Ltd,Daesan,South Korea,Asia,36.9395813,126.4343234,21.6947038,72.6333264
ONGC Petro additions Ltd,Jingmen,China,Asia,31.035395,112.199427,21.6947038,72.6333264
ONGC Petro additions Ltd,Khoramabad,Iran,Middle East,33.4646833,48.33896439999999,21.6947038,72.6333264
ONGC Petro additions Ltd,Mahabad,Iran,Middle East,36.7683527,45.7337091,21.6947038,72.6333264
ONGC Petro additions Ltd,Map Ta Phut,Thailand,Asia,12.713219,101.1685888,21.6947038,72.6333264
ONGC Petro additions Ltd,Renqiu,China,Asia,38.683591,116.082917,21.6947038,72.6333264
Oil & Natural Gas Corp Ltd,Alexandria,Egypt,Africa,31.2000924,29.9187387,30.0781097,31.3167333
Oil & Natural Gas Corp Ltd,Daesan,South Korea,Asia,36.9395813,126.4343234,37.52905920000001,126.9217725
Oil & Natural Gas Corp Ltd,Jingmen,China,Asia,31.035395,112.199427,19.0434685,72.8524994
Oil & Natural Gas Corp Ltd,Kordestan,Iran,Middle East,35.9553579,47.1362125,19.0434685,72.8524994
Oil & Natural Gas Corp Ltd,Mahabad,Iran,Middle East,36.7683527,45.7337091,19.0434685,72.8524994
Oil & Natural Gas Corp Ltd,Nanjing,China,Asia,32.060255,118.796877,19.0434685,72.8524994
Oil Refineries Ltd,Chocolate Bayou,United States,North America,29.3132939,-95.2521556,32.7934122,35.0519142
Oil Refineries Ltd,Dahej,India,Asia,21.7129335,72.58200900000001,32.7934122,35.0519142
Oil Refineries Ltd,Neal,United States,North America,42.10499739999999,-72.58348029999999,32.7934122,35.0519142
Oil Refineries Ltd,Shuaiba City,Kuwait,Middle East,28.96126049999999,48.1172091,32.7934122,35.0519142
Organichesky Sintez PJSC,Daesan,South Korea,Asia,36.9395813,126.4343234,36.9395813,126.4343234
Organichesky Sintez PJSC,Yeosu,South Korea,Asia,34.7603737,127.6622221,34.7603737,127.6622221
Oriental Energy Co Ltd,Nanjing,China,Asia,32.060255,118.796877,33.572781,119.063879
Oriental Energy Co Ltd,Suining,China,Asia,30.532847,105.592898,10.762265,106.6229036
Oriental Petrochemicals Company,Ruwais,United Arab Emirates,Middle East,24.0944621,52.7346371,30.1055233,31.3654674
PAKISTAN SYNTHETICS LTD,Gelsenkirchen,Germany,Greater Europe,51.517744,7.085717199999999,25.0645103,66.87450849999999
"PAN-ASIA PET RESIN (GUANGZHOU) CO., LTD.",Al Jubail,Saudi Arabia,Middle East,26.9597709,49.5687416,23.144757,113.49161
PET Processors UK,Rozenburg,Netherlands,Greater Europe,51.904422,4.2471328,55.0590195,-3.652992
PET Refine Technology,Al Jubail,Saudi Arabia,Middle East,26.9597709,49.5687416,27.0974456,49.6976282
PETROLEOS MEXICANOS,La Cangrejera,Mexico,North America,18.0923018,-94.3603669,18.0923018,-94.3603669
PETROLEOS MEXICANOS,Morelos,Mexico,North America,18.6813049,-99.1013498,18.6913907,-99.1148942
PETROLEOS MEXICANOS,Plaquemine,United States,North America,30.2890833,-91.23427439999999,19.439234,-99.1756565
PETRON CORP,Al Jubail,Saudi Arabia,Middle East,26.9597709,49.5687416,27.0617294,49.5328598
PETROQUIM S A,Tarragona,Spain,Greater Europe,41.1188827,1.2444909,-34.6347811,-58.5262004
PETROQUIMICA CUYO SAIC,Puertollano,Spain,Greater Europe,38.6884458,-4.1078877,-34.59646370000001,-58.37071520000001
PETROQUIMICA CUYO SAIC,Tarragona,Spain,Greater Europe,41.1188827,1.2444909,-34.59646370000001,-58.37071520000001
PETROQUIMICA DE VENEZUELA SA,Wesseling,Germany,Greater Europe,50.8255624,6.9725385,10.0723308,-64.877612
PINNACLE POLYMERS,Burghausen,Germany,Greater Europe,48.1725613,12.8310753,30.0696697,-90.6047973
PINNACLE POLYMERS,Urumqi,China,Asia,43.825592,87.61684799999999,30.0696697,-90.6047973
PLASTIPAK ITALIA PREFORME S.R.L.,Pearl River,United States,North America,30.3928842,-89.6734256,45.9323649,8.5554318
POLI-CHEM,Feluy,Belgium,Greater Europe,50.562207,4.250265,51.6486207,12.2871768
POLIOLEFINAS INTERNACIONALES C.A.,El Tablazo,Venezuela,Latin America and the Caribbean,10.7487365,-71.5245614,10.7487365,-71.5245614
POLIOLEFINAS INTERNACIONALES C.A.,Triunfo,Brazil,Latin America and the Caribbean,-29.9380706,-51.7153171,-29.9380706,-51.7153171
POLISAN HELLAS COMMERCIAL & INDUSTRIAL SINGLE SHAREHOLDER S.A. OF PET RESIN & PREFORMS PRODUCTION,Kuanyin,Taiwan,Asia,25.0359365,121.1137544,25.0359365,121.1137544
POLYTAMA PROPINDO PT,Shuaiba City,Kuwait,Middle East,28.96126049999999,48.1172091,-6.3933768,108.4065239
"PRIME POLYMER CO., LTD.",Al Jubail,Saudi Arabia,Middle East,26.9597709,49.5687416,28.3516368,77.3022862
"PRIME POLYMER CO., LTD.",Map Ta Phut,Thailand,Asia,12.713219,101.1685888,12.752014,101.1746593
PT Pertamina,Haifa,Israel,Middle East,32.7940463,34.989571,-6.1865098,106.8460667
PTT PCL,Anasaka,Japan,Asia,35.6710403,139.7345469,6.991143,100.430407
PTT PCL,Bandar Imam,Iran,Middle East,30.4472068,49.0716096,6.991143,100.430407
PTT PCL,Fushun,China,Asia,41.880872,123.957208,13.817941,100.5576737
PTT PCL,Hsinchu,Taiwan,Asia,24.8138287,120.9674798,6.991143,100.430407
PTT PCL,Jingmen,China,Asia,31.035395,112.199427,13.817941,100.5576737
PTT PCL,Lanzhou,China,Asia,36.061089,103.834303,13.817941,100.5576737
PTT PCL,Qingdao,China,Asia,36.067108,120.382609,13.817941,100.5576737
PTT PCL,Quanzhou,China,Asia,24.874132,118.675675,13.817941,100.5576737
PTT PCL,Shanghai City,China,Asia,31.230416,121.473701,13.817941,100.5576737
PTT PCL,Songyuan,China,Asia,45.141789,124.825117,13.817941,100.5576737
PTT PCL,Yeosu,South Korea,Asia,34.7603737,127.6622221,6.991143,100.430407
PTT PCL,Zibo,China,Asia,36.813546,118.055019,13.817941,100.5576737
PUBLIC JOINT STOCK COMPANY SIBUR HOLDING,Ain Sokhna,Egypt,Africa,29.6724876,32.3369649,55.679984,37.569456
PUBLIC JOINT STOCK COMPANY SIBUR HOLDING,Al Jubail,Saudi Arabia,Middle East,26.9597709,49.5687416,55.679984,37.569456
PUBLIC JOINT STOCK COMPANY SIBUR HOLDING,Ipojuca,Brazil,Latin America and the Caribbean,-8.4627496,-35.0828588,55.679984,37.569456
PUBLIC JOINT STOCK COMPANY SIBUR HOLDING,Jamnagar,India,Asia,22.4707019,70.05773,22.4707019,70.05773
PUBLIC JOINT STOCK COMPANY SIBUR HOLDING,Yanbu,Saudi Arabia,Middle East,24.0231757,38.1899782,55.679984,37.569456
PUBLIC JOINT STOCK COMPANY SIBUR HOLDING,Yeosu,South Korea,Asia,34.7603737,127.6622221,58.2571853,68.4368856
PUBLIC JOINT STOCK COMPANY SIBUR HOLDING,Yinchuan,China,Asia,38.487193,106.230908,58.2571853,68.4368856
"PUCHENG CLEAN ENERGY CHEMICAL CO., LTD.",Ichihara,Japan,Asia,35.4978821,140.1148672,35.4978821,140.1148672
"PUCHENG CLEAN ENERGY CHEMICAL CO., LTD.",Tomsk,Russian Federation,Greater Europe,56.4884295,84.9480469,56.4884295,84.9480469
"PUCHENG CLEAN ENERGY CHEMICAL CO., LTD.",Zibo,China,Asia,36.813546,118.055019,36.813546,118.055019
Petkim Petrokimya Holding AS,Pancevo,Serbia,Greater Europe,44.874,20.6475673,41.1058205,28.9873235
Petkim Petrokimya Holding AS,Schwechat,Austria,Greater Europe,48.1409268,16.4763778,41.1058205,28.9873235
Petkim Petrokimya Holding AS,Secunda,South Africa,Africa,-26.5157792,29.1913918,41.1058205,28.9873235
PetroChina Co Ltd,Balongan,Indonesia,Asia,-6.3971917,108.3682501,-6.2184914,106.8305604
PetroChina Co Ltd,Batangas City,Philippines,Asia,13.7564651,121.0583076,22.280182,114.173618
PetroChina Co Ltd,Cilegon,Indonesia,Asia,-6.018681700000001,106.05582180000003,-6.2184914,106.8305604
PetroChina Co Ltd,Dagang,China,Asia,33.189192,120.10347299999998,33.1989554,120.4539971
PetroChina Co Ltd,Dahej,India,Asia,21.7129335,72.58200900000001,22.280182,114.173618
PetroChina Co Ltd,Dongying,China,Asia,37.43396300000001,118.674614,37.4407811,118.6851054
PetroChina Co Ltd,Dushanzi,China,Asia,44.328095,84.886974,44.432302,84.89520499999999
PetroChina Co Ltd,Fangshan,China,Asia,39.749144,116.143267,39.9087956,116.3616928
PetroChina Co Ltd,Gersthofen,Germany,Europe,48.4242503,10.876347,22.280182,114.173618
PetroChina Co Ltd,Iwakuni,Japan,Asia,34.1667451,132.2191641,22.280182,114.173618
PetroChina Co Ltd,Jiaxing,China,Asia,30.753924,120.758543,30.7740911,120.7447467
PetroChina Co Ltd,Karamay,China,Asia,45.579888,84.88920700000001,44.432302,84.89520499999999
PetroChina Co Ltd,Kazan,Russian Federation,Greater Europe,55.7878944,49.1233294,22.280182,114.173618
PetroChina Co Ltd,Kerteh,Malaysia,Asia,4.507893999999999,103.4430001,1.3037183,103.833155
PetroChina Co Ltd,Lepetkata,India,Asia,27.4034788,94.88099849999999,29.65644259999999,91.0993237
PetroChina Co Ltd,Liaocheng,China,Asia,36.45703,115.98546,36.4574845,115.9974055
PetroChina Co Ltd,Merak,Indonesia,Asia,-5.9329071,105.9997125,-6.2184914,106.8305604
PetroChina Co Ltd,Mogilev,Belarus,Europe,53.8980663,30.3325337,22.280182,114.173618
PetroChina Co Ltd,Nanjing,China,Asia,32.060255,118.796877,32.0720323,118.7684235
PetroChina Co Ltd,Ningbo,China,Asia,29.868336,121.54399,29.85999839999999,121.5860595
PetroChina Co Ltd,Pasir Gudang,Malaysia,Asia,1.470288,103.9029689,1.3037183,103.833155
PetroChina Co Ltd,Pengerang,Malaysia,Asia,1.3647023,104.1111109,1.3037183,103.833155
PetroChina Co Ltd,Plaju,Indonesia,Asia,-2.9997434,104.8162784,-1.11442,103.4096298
PetroChina Co Ltd,Pulau Ayer Merbau,Singapore,Asia,1.2677778,103.7163889,1.3037183,103.833155
PetroChina Co Ltd,Puyang,China,Asia,35.761829,115.029215,35.776801,115.079744
PetroChina Co Ltd,Solnechnogorsk,Russian Federation,Russia and the Caspian,56.19091299999999,36.9721914,22.280182,114.173618
PetroChina Co Ltd,Tangerang,Indonesia,Asia,-6.1701796,106.6403236,-6.2184914,106.8305604
PetroChina Co Ltd,Yeosu,South Korea,Asia,34.7603737,127.6622221,30.78426,121.444873
PetroChina Co Ltd,Yueyang,China,Asia,29.356803,113.12873,29.383149,113.131609
PetroChina Co Ltd,Zhanjiang,China,Asia,21.270702,110.359368,21.663782,110.930746
Petronas Chemicals Group Bhd,Cilegon,Indonesia,Asia,-6.0186817,106.0558218,3.08086,101.583
Petronas Chemicals Group Bhd,Huizhou,China,Asia,23.112257,114.415801,3.08086,101.583
Petronas Chemicals Group Bhd,Lianyungang,China,Asia,34.596653,119.221611,3.08086,101.583
Petronas Chemicals Group Bhd,Spartanburg,United States,North America,34.9495672,-81.9320482,3.08086,101.583
Philippine Polypropylene Inc,Al Jubail,Saudi Arabia,Middle East,26.9597709,49.5687416,14.495163,120.603122
Phillips 66,Beringen,Belgium,Greater Europe,51.04793,5.21862,51.04793,5.21862
Phillips 66,Cedar Bayou,United States,North America,29.7818838,-94.9216,29.8530256,-94.9178108
Phillips 66,Daesan,South Korea,Asia,36.9395813,126.4343234,36.9395813,126.4343234
Phillips 66,Huizhou,China,Asia,23.112257,114.415801,23.112257,114.415801
Phillips 66,La Porte,United States,North America,29.6657838,-95.0193728,29.6651523,-95.0263635
Phillips 66,Mesaieed,Qatar,Middle East,24.9909255,51.5493483,24.9909255,51.5493483
Phillips 66,Nanjing,China,Asia,32.060255,118.796877,32.060255,118.796877
Phillips 66,Orange,United States,North America,33.7879139,-117.8531007,33.7783819,-117.8354357
Phillips 66,Pasadena,United States,North America,34.1477849,-118.14451549999998,34.1575239,-118.1329189
Phillips 66,Plaquemine,United States,North America,30.2890833,-91.23427439999999,30.5606444,-90.869659
Phillips 66,Point Comfort,United States,North America,28.6797169,-96.56025369999999,28.7142215,-96.2205348
Phillips 66,Ruwais,United Arab Emirates,Middle East,24.0944621,52.7346371,24.0944621,52.7346371
Phillips 66,Ulsan,South Korea,Asia,35.5383773,129.3113596,35.5383773,129.3113596
Polski Koncern Naftowy ORLEN S,Al Jubail,Saudi Arabia,Middle East,26.9597709,49.5687416,52.5856898,19.6512023
Polski Koncern Naftowy ORLEN S,Lillo,Belgium,Greater Europe,51.30436,4.28026,51.1327043,15.070421
Polski Koncern Naftowy ORLEN S,Rabigh,Saudi Arabia,Middle East,22.7906701,39.0189623,52.5856898,19.6512023
Polski Koncern Naftowy ORLEN S,Schwechat,Austria,Greater Europe,48.1409268,16.4763778,51.1327043,15.070421
Polski Koncern Naftowy ORLEN S,Zwijndrecht,Belgium,Greater Europe,51.2164116,4.3335905,51.1327043,15.070421
Polynar,Neal,United States,North America,42.10499739999999,-72.58348029999999,38.0763477,46.1335697
Private Investors,Dagang,China,Asia,33.189192,120.103473,-27.4682013,153.0303937
Private Investors,Fushun,China,Asia,41.880872,123.957208,49.26525969999999,-123.1447373
Private Investors,Guangzhou,China,Asia,23.12911,113.264385,22.287942,114.151164
Private Investors,Lanzhou,China,Asia,36.061089,103.834303,51.5091568,-0.1374233
Private Investors,Luoyang,China,Asia,34.620202,112.453926,-27.4682013,153.0303937
Private Investors,Maoming,China,Asia,21.662991,110.925439,22.285353,114.1556168
Private Investors,Quanzhou,China,Asia,24.874132,118.675675,-27.4682013,153.0303937
Private Investors,Songyuan,China,Asia,45.141789,124.825117,49.26525969999999,-123.1447373
Private Investors,Yokkaichi,Japan,Asia,34.9651064,136.6244121,49.26525969999999,-123.1447373
QATAR PETROCHEMICAL CO QAPCO,Al Jubail,Saudi Arabia,Middle East,26.9597709,49.5687416,25.2660684,51.548807
QATAR PETROCHEMICAL COMPANY (QAPCO) Q.S.C,Freeport,United States,North America,43.8570065,-70.1031201,25.2660684,51.548807
QATAR PETROCHEMICAL COMPANY (QAPCO) Q.S.C,Mesaieed,Qatar,Middle East,24.9909255,51.5493483,24.930603,51.5660128
QATAR PETROCHEMICAL COMPANY (QAPCO) Q.S.C,Shuaiba City,Kuwait,Middle East,28.96126049999999,48.1172091,25.2660684,51.548807
QATAR PETROCHEMICAL COMPANY (QAPCO) Q.S.C,Tiszaujvaros,Hungary,Greater Europe,47.91598459999999,21.0427447,25.2660684,51.548807
QATAR PETROLEUM,Al Jubail,Saudi Arabia,Middle East,26.9597709,49.5687416,25.3215729,51.5269706
QATAR PETROLEUM,Daqing,China,Asia,46.589309,125.103784,25.3215729,51.5269706
QATAR PETROLEUM,Duolun,China,Asia,42.203591,116.485555,25.3215729,51.5269706
QATAR PETROLEUM,Dushanzi,China,Asia,44.328095,84.886974,25.3215729,51.5269706
QATAR PETROLEUM,Guangzhou,China,Asia,23.12911,113.264385,23.1415713,113.3248593
QATAR PETROLEUM,Mesaieed,Qatar,Middle East,24.9909255,51.5493483,24.9952333,51.5498967
QATAR PETROLEUM,Panjin,China,Asia,41.119997,122.070714,25.3215729,51.5269706
QATAR PETROLEUM,Quanzhou,China,Asia,24.874132,118.675675,25.3215729,51.5269706
QATAR PETROLEUM,Shanghai City,China,Asia,31.230416,121.473701,25.3215729,51.5269706
QENOS OLEFINS PTY LTD,Huizhou,China,Asia,23.112257,114.415801,-37.849575,144.8101501
QENOS OLEFINS PTY LTD,Lepetkata,India,Asia,27.4034788,94.88099849999999,-37.849575,144.8101501
QENOS OLEFINS PTY LTD,Ningdong,China,Asia,38.16443,106.586163,-37.849575,144.8101501
Qinghai Salt Lake Industry Co,Linyi,China,Asia,35.104673,118.356414,36.581679,101.83296
REGAL PETROCHEMICAL CO,La Porte,United States,North America,29.6657838,-95.0193728,29.6767786,-95.3222273
Rabigh Refining & Petrochemica,Al Jubail,Saudi Arabia,Middle East,26.9597709,49.5687416,22.7906701,39.0189623
Rabigh Refining & Petrochemica,Aliaga,Turkey,Greater Europe,38.799561,26.97074,22.7906701,39.0189623
Rabigh Refining & Petrochemica,Bathinda,India,Asia,30.210994,74.9454745,22.7906701,39.0189623
Rabigh Refining & Petrochemica,Baytown,United States,North America,29.7355047,-94.97742740000001,22.7906701,39.0189623
Rabigh Refining & Petrochemica,Marcus Hook,United States,North America,39.8192794,-75.4185272,22.7906701,39.0189623
Reliance Industries Ltd,Al Jubail,Saudi Arabia,Middle East,26.9597709,49.5687416,22.296155,70.798367
Reliance Industries Ltd,Dagang,China,Asia,33.189192,120.103473,26.4919202,80.3150641
Reliance Industries Ltd,Dalian,China,Asia,38.91400300000001,121.614682,26.4919202,80.3150641
Reliance Industries Ltd,Gelsenkirchen,Germany,Greater Europe,51.517744,7.085717199999999,21.1360155,79.05961239999999
Reliance Industries Ltd,Huizhou,China,Asia,23.112257,114.415801,26.4919202,80.3150641
Reliance Industries Ltd,Ichihara,Japan,Asia,35.4978821,140.1148672,22.4530392,88.3077186
Reliance Industries Ltd,Jurong Island,Singapore,Asia,1.2759631,103.6767958,1.3339143,103.6496416
Reliance Industries Ltd,Map Ta Phut,Thailand,Asia,12.713219,101.1685888,22.4530392,88.3077186
Reliance Industries Ltd,Nanyo,Japan,Asia,38.054728,140.1478765,22.4530392,88.3077186
Reliance Industries Ltd,Sodegaura,Japan,Asia,35.4302559,139.9548805,22.4530392,88.3077186
Reliance Industries Ltd,Wuhan,China,Asia,30.592849,114.305539,26.4919202,80.3150641
Reliance Industries Ltd,Yokkaichi,Japan,Asia,34.9651064,136.6244121,22.4530392,88.3077186
Repsol SA,Daesan,South Korea,Asia,36.9395813,126.4343234,43.29568500000001,-3.0138183
Repsol SA,Freeport,United States,North America,43.8570065,-70.1031201,40.3977079,-3.6843705
Repsol SA,Joffre,Canada,North America,52.33450300000001,-113.535927,51.04530279999999,-114.070124
Repsol SA,Mont Belvieu,United States,North America,29.8477222,-94.89075799999999,30.1737312,-95.4729831
Repsol SA,Old Ocean,United States,North America,29.0799726,-95.749673,30.1737312,-95.4729831
Repsol SA,Onsan,South Korea,Asia,37.1498096,127.0772212,43.29568500000001,-3.0138183
Repsol SA,Ordos,China,Asia,39.608266,109.781327,40.3977079,-3.6843705
Repsol SA,Ulsan,South Korea,Asia,35.5383773,129.3113596,43.29568500000001,-3.0138183
Repsol SA,Yeosu,South Korea,Asia,34.7603737,127.6622221,43.29568500000001,-3.0138183
Rextac,Burghausen,Germany,Greater Europe,48.1725613,12.8310753,31.82631199999999,-102.325173
Rizhao Guangxin Chemical Technology,Guangzhou,China,Asia,23.12911,113.264385,35.397224,119.51162
Rompetrol Rafinare SA,Porvoo,Finland,Greater Europe,60.3931919,25.6652739,44.3459564,28.6549854
Rompetrol Rafinare SA,Rabigh,Saudi Arabia,Middle East,22.7906701,39.0189623,44.3459564,28.6549854
Rongsheng Petro Chemical Co Lt,Al Jubail,Saudi Arabia,Middle East,26.9597709,49.5687416,1.2798179,103.8551022
Rongsheng Petro Chemical Co Lt,Yanbu,Saudi Arabia,Middle East,24.0231757,38.1899782,1.2798179,103.8551022
Rongsheng Petro Chemical Co Lt,Yangzhou,China,Asia,32.394209,119.412939,1.2798179,103.8551022
Rosneft Oil Co PJSC,Fangshan,China,Asia,39.749144,116.143267,55.7480468,37.6199951
Rosneft Oil Co PJSC,Rabigh,Saudi Arabia,Middle East,22.7906701,39.0189623,55.7480468,37.6199951
Rosneft Oil Co PJSC,Yeosu,South Korea,Asia,34.7603737,127.6622221,55.7480468,37.6199951
Royal Dutch Shell PLC,Budyonnovsk,Russian Federation,Greater Europe,44.7977007,44.1590538,52.0932014,4.3118443
Royal Dutch Shell PLC,Daqing,China,Asia,46.589309,125.103784,52.0932014,4.3118443
Royal Dutch Shell PLC,Dushanzi,China,Asia,44.328095,84.886974,52.0932014,4.3118443
Royal Dutch Shell PLC,Fangshan,China,Asia,39.749144,116.143267,52.0932014,4.3118443
Royal Dutch Shell PLC,Jinan,China,Asia,36.6512,117.120095,52.0932014,4.3118443
Royal Dutch Shell PLC,Kazan,Russian Federation,Greater Europe,55.7878944,49.1233294,52.0932014,4.3118443
Royal Dutch Shell PLC,Quanzhou,China,Asia,24.874132,118.675675,52.0932014,4.3118443
Royal Dutch Shell PLC,Shaoxing,China,Asia,29.995762,120.586109,52.0932014,4.3118443
Royal Dutch Shell PLC,Shouguang,China,Asia,36.85576,118.790739,52.0932014,4.3118443
Royal Dutch Shell PLC,Yan'an,China,Asia,36.585445,109.489757,52.0932014,4.3118443
Royal Dutch Shell PLC,Yinchuan,China,Asia,38.487193,106.230908,52.0932014,4.3118443
Royal Dutch Shell PLC,Yueyang,China,Asia,29.356803,113.12873,52.0932014,4.3118443
Ruixing Plastics Industry,Lianyungang,China,Asia,34.596653,119.221611,34.596653,119.221611
S-Oil Corp,Bandar Imam,Iran,Middle East,30.4472068,49.0716096,29.32197489999999,47.9359847
SAUDI EUROPEAN PETROCHEMICAL COMPANY (IBN ZAHR),Cilegon,Indonesia,Asia,-6.0186817,106.0558218,27.0687111,49.570189
"SHAANXI YANCHANG PETROLEUM (GROUP) CO., LTD.",Bandar Imam,Iran,Middle East,30.4472068,49.0716096,37.581288,108.828811
"SHAANXI YANCHANG PETROLEUM (GROUP) CO., LTD.",Chuzhou,China,Asia,32.25342500000001,118.328321,37.581288,108.828811
"SHAANXI YANCHANG PETROLEUM (GROUP) CO., LTD.",Ichihara,Japan,Asia,35.4978821,140.1148672,36.6499768,109.5769433
"SHAANXI YANCHANG PETROLEUM (GROUP) CO., LTD.",Jamnagar,India,Asia,22.4707019,70.05773,37.581288,108.828811
"SHAANXI YANCHANG PETROLEUM (GROUP) CO., LTD.",Jurong Island,Singapore,Asia,1.2759631,103.6767958,37.581288,108.828811
"SHAANXI YANCHANG PETROLEUM (GROUP) CO., LTD.",Navodari,Romania,Greater Europe,44.341052,28.6455428,37.581288,108.828811
"SHAANXI YANCHANG PETROLEUM (GROUP) CO., LTD.",Plock,Poland,Greater Europe,52.5463446,19.7065364,37.581288,108.828811
SHAHID TONDGOYAN PETROCHEMICAL COMPANY,Dahej,India,Asia,21.7129335,72.58200900000001,30.4757266,49.0877255
SHAHID TONDGOYAN PETROCHEMICAL COMPANY,Yanbu,Saudi Arabia,Middle East,24.0231757,38.1899782,24.0231757,38.1899782
SHAHID TONDGOYAN PETROCHEMICAL COMPANY,Zhuhai,China,Asia,22.270978,113.576677,30.4757266,49.0877255
SHANDONG HAIYOU PETROCHEMICA,Nanjing,China,Asia,32.060255,118.796877,32.060255,118.796877
"SHANDONG HENGYUAN PETROCHEMICAL GROUP CO., LTD.",Cilegon,Indonesia,Asia,-6.0186817,106.0558218,37.19249430000001,116.8535703
SHANDONG HUIFENG NON-WOVEN C,Ordos,China,Asia,39.608266,109.781327,39.608266,109.781327
"SHANDONG SHENDA ENERGY CO., LTD.",Linyi,China,Asia,35.104673,118.356414,35.104673,118.356414
"SHANDONG SHOUGUANG LUQING PETROCHEMICAL CO., LTD.",Fayetteville,United States,North America,35.0526641,-78.87835849999999,37.197576,118.846588
"SHANDONG SHOUGUANG LUQING PETROCHEMICAL CO., LTD.",Pengerang,Malaysia,Asia,1.3647023,104.1111109,37.197576,118.846588
"SHANDONG YUHUANG CHEMICAL CO., LTD.",Golmud,China,Asia,36.40640399999999,94.928484,35.336602,115.197674
"SHANDONG YUHUANG CHEMICAL CO., LTD.",Lianyungang,China,Asia,34.596653,119.221611,35.336602,115.197674
SHAZAND PETROCHEMICAL PUBLIC JOINT STOCK COMPANY,Arak,Iran,Middle East,34.0953553,49.70134860000001,34.0187496,49.4597303
SHAZAND PETROCHEMICAL PUBLIC JOINT STOCK COMPANY,La Porte,United States,North America,29.6657838,-95.0193728,35.7645105,51.4124956
SHAZAND PETROCHEMICAL PUBLIC JOINT STOCK COMPANY,Neal,United States,North America,42.10499739999999,-72.58348029999999,35.7645105,51.4124956
SHAZAND PETROCHEMICAL PUBLIC JOINT STOCK COMPANY,Tabriz,Iran,Middle East,38.096239,46.2738013,35.7645105,51.4124956
"SHENYANG PARAFFIN-WAX CHEMICAL CO., LTD.",Batangas City,Philippines,Asia,13.7564651,121.0583076,41.808373,124.073451
SICHUAN YIBIN PULASI PACKING,Jurong Island,Singapore,Asia,1.2759631,103.6767958,1.2759631,103.6767958
SK Innovation Co Ltd,Al Jubail,Saudi Arabia,Middle East,26.9597709,49.5687416,50.1442043,8.5801962
SK Innovation Co Ltd,Dahej,India,Asia,21.712933500000002,72.58200900000001,50.1442043,8.5801962
SK Innovation Co Ltd,Jurong Island,Singapore,Asia,1.2759631,103.6767958,1.3076135,103.6751881
SK Innovation Co Ltd,Mizushima,Japan,Asia,36.637423,136.9056142,37.3537164,127.8946643
SK Innovation Co Ltd,Yueyang,China,Asia,29.356803,113.12873,19.1122425,72.8850918
STATE OIL COMPANY OF THE AZERBAIJAN REPUBLIC,Changhua,Taiwan,Asia,24.0716583,120.5624474,40.3619323,49.835758
STATE OIL COMPANY OF THE AZERBAIJAN REPUBLIC,Khartoum,Sudan,Africa,15.5006544,32.5598994,44.4339235,25.9667284
STATE OIL COMPANY OF THE AZERBAIJAN REPUBLIC,Map Ta Phut,Thailand,Asia,12.713219,101.1685888,40.3619323,49.835758
STATE OIL COMPANY OF THE AZERBAIJAN REPUBLIC,Qingyang,China,Asia,35.709077,107.643631,40.4146018,49.9023492
STATE OIL COMPANY OF THE AZERBAIJAN REPUBLIC,Schwechat,Austria,Greater Europe,48.14092680000001,16.4763778,47.3759948,25.3263957
Sahara International Petrochem,Navodari,Romania,Greater Europe,44.341052,28.6455428,27.0032621,49.570004
Sahara International Petrochem,Seadrift,United States,North America,28.4152807,-96.7135933,27.0032621,49.570004
Sahara International Petrochem,Yanbu,Saudi Arabia,Middle East,24.0231757,38.1899782,27.0032621,49.570004
Sasol Ltd,Bandar Imam,Iran,Middle East,30.4472068,49.0716096,-26.813364,27.8252814
Sasol Ltd,Baytown,United States,North America,29.7355047,-94.97742740000001,29.7607799,-95.1767228
Sasol Ltd,Ensenada,Argentina,Latin America and the Caribbean,-34.8607513,-57.9124307,-26.813364,27.8252814
Sasol Ltd,Yeosu,South Korea,Asia,34.7603737,127.6622221,-26.813364,27.8252814
Saudi Arabian Oil Co,Ain Sokhna,Egypt,Africa,29.6724876,32.3369649,31.9539711,35.9072692
Saudi Arabian Oil Co,Al Jubail,Saudi Arabia,Middle East,26.9597709,49.5687416,26.9653072,49.4987642
Saudi Arabian Oil Co,Aliaga,Turkey,Greater Europe,38.799561,26.97074,23.9432127,38.31568499999999
Saudi Arabian Oil Co,Bandar Imam,Iran,Middle East,30.4472068,49.0716096,26.2453649,50.1999158
Saudi Arabian Oil Co,Bathinda,India,Asia,30.210994,74.9454745,23.9432127,38.31568499999999
Saudi Arabian Oil Co,Blachownia,Poland,Greater Europe,50.78505,18.96224,21.4103268,39.2512225
Saudi Arabian Oil Co,Cilegon,Indonesia,Asia,-6.018681699999999,106.0558218,23.9432127,38.31568499999999
Saudi Arabian Oil Co,Dahej,India,Asia,21.7129335,72.58200900000001,19.1976236,73.2070896
Saudi Arabian Oil Co,Geelong,Australia,Oceania,-38.1499181,144.3617186,21.4438045,39.1836242
Saudi Arabian Oil Co,Hazira,India,Asia,21.1784184,72.6587856,19.1976236,73.2070896
Saudi Arabian Oil Co,Jiangyin,China,Asia,31.920658,120.284938,23.9432127,38.31568499999999
Saudi Arabian Oil Co,Kungrad District,Uzbekistan,Greater Europe,43.4283946,57.188596600000004,21.4438045,39.1836242
Saudi Arabian Oil Co,La Porte,United States,North America,29.6657838,-95.0193728,29.6839704,-95.4574449
Saudi Arabian Oil Co,Lake Charles,United States,North America,30.2265949,-93.2173758,29.8885998,-93.95101030000001
Saudi Arabian Oil Co,Longview,United States,North America,32.5007037,-94.74048909999999,29.6839704,-95.4574449
Saudi Arabian Oil Co,Loqburi,Thailand,Asia,14.7995081,100.6533706,31.9539711,35.9072692
Saudi Arabian Oil Co,Luoyang,China,Asia,34.620202,112.453926,23.9432127,38.31568499999999
Saudi Arabian Oil Co,Marcus Hook,United States,North America,39.8192794,-75.4185272,40.8947334,-73.9425538
Saudi Arabian Oil Co,Nanchital,Mexico,North America,18.0714575,-94.40829130000002,21.4438045,39.1836242
Saudi Arabian Oil Co,Navodari,Romania,Greater Europe,44.341052,28.6455428,21.4438045,39.1836242
Saudi Arabian Oil Co,Odessa,United States,North America,31.8456816,-102.3676431,23.9432127,38.31568499999999
Saudi Arabian Oil Co,Old Ocean,United States,North America,29.0799726,-95.749673,29.6839704,-95.4574449
Saudi Arabian Oil Co,Panipat,India,Asia,29.3909464,76.9635023,28.5773973,77.2383811
Saudi Arabian Oil Co,Pavlodar,Kazakhstan,Greater Europe,52.2873032,76.9674023,21.4438045,39.1836242
Saudi Arabian Oil Co,Pengzhou,China,Asia,30.990108,103.958014,23.9432127,38.31568499999999
Saudi Arabian Oil Co,Plock,Poland,Greater Europe,52.5463446,19.7065364,21.4103268,39.2512225
Saudi Arabian Oil Co,Point Comfort,United States,North America,28.6797169,-96.56025369999999,29.6839704,-95.4574449
Saudi Arabian Oil Co,Puertollano,Spain,Greater Europe,38.6884458,-4.1078877,21.4438045,39.1836242
Saudi Arabian Oil Co,Rabigh,Saudi Arabia,Middle East,22.7906701,39.0189623,23.9432127,38.31568499999999
Saudi Arabian Oil Co,Ruwais,United Arab Emirates,Middle East,24.0944621,52.7346371,24.0905271,52.6511011
Saudi Arabian Oil Co,Shijiazhuang,China,Asia,38.042805,114.514893,23.9432127,38.31568499999999
Saudi Arabian Oil Co,Shuaiba City,Kuwait,Middle East,28.96126049999999,48.1172091,29.0924366,48.0820734
Saudi Arabian Oil Co,Stenungsund,Sweden,Greater Europe,58.0678388,11.8294345,21.4438045,39.1836242
Saudi Arabian Oil Co,Tarragona,Spain,Greater Europe,41.1188827,1.2444909,21.4438045,39.1836242
Saudi Arabian Oil Co,Tobolsk,Russian Federation,Greater Europe,58.2227256,68.2777646,23.9432127,38.31568499999999
Saudi Arabian Oil Co,Vadodara,India,Asia,22.3071588,73.1812187,19.1976236,73.2070896
Saudi Arabian Oil Co,Wuhan,China,Asia,30.592849,114.305539,23.9432127,38.31568499999999
Saudi Arabian Oil Co,Yanbu,Saudi Arabia,Middle East,24.0231757,38.1899782,23.9432127,38.31568499999999
Saudi Arabian Oil Co,Yeosu,South Korea,Asia,34.7603737,127.6622221,21.4438045,39.1836242
Saudi Arabian Oil Co,Yulin,China,Asia,22.654032,110.18122,23.9432127,38.31568499999999
Saudi Basic Industries Corp,Al Jubail,Saudi Arabia,Middle East,26.959770900000002,49.5687416,27.0440254,49.5509135
Saudi Basic Industries Corp,Bayport,United States,North America,40.7384317,-73.0506656,41.0501239,-73.6879769
Saudi Basic Industries Corp,Baytown,United States,North America,29.7355047,-94.97742740000001,29.7382104,-95.56149239999999
Saudi Basic Industries Corp,Cologne,Germany,Greater Europe,50.937531,6.9602786,51.2159442,6.763483399999999
Saudi Basic Industries Corp,Dahej,India,Asia,21.7129335,72.58200900000001,22.3690706,73.1082322
Saudi Basic Industries Corp,Hengshui,China,Asia,37.73892000000001,115.670177,38.8245028,117.4068472
Saudi Basic Industries Corp,Heze,China,Asia,35.23375,115.480656,33.9678418,-6.8328631
Saudi Basic Industries Corp,Kungrad District,Uzbekistan,Greater Europe,43.4283946,57.1885966,33.9678418,-6.8328631
Saudi Basic Industries Corp,Kyyanly,Turkmenistan,Greater Europe,40.033333,52.766667,33.900785,35.5021105
Saudi Basic Industries Corp,Lake Charles,United States,North America,30.2265949,-93.2173758,29.7382104,-95.56149239999999
Saudi Basic Industries Corp,Longview,United States,North America,32.5007037,-94.74048909999999,29.7382104,-95.56149239999999
Saudi Basic Industries Corp,Nanchital,Mexico,North America,18.0714575,-94.40829130000002,33.9678418,-6.8328631
Saudi Basic Industries Corp,Navodari,Romania,Greater Europe,44.341052,28.6455428,33.9678418,-6.8328631
Saudi Basic Industries Corp,Odessa,United States,North America,31.8456816,-102.3676431,29.7382104,-95.56149239999999
Saudi Basic Industries Corp,Pengzhou,China,Asia,30.990108,103.958014,33.9678418,-6.8328631
Saudi Basic Industries Corp,Plock,Poland,Greater Europe,52.5463446,19.7065364,33.9678418,-6.8328631
Saudi Basic Industries Corp,Point Comfort,United States,North America,28.6797169,-96.56025369999999,29.7382104,-95.56149239999999
Saudi Basic Industries Corp,Port Said City,Egypt,Africa,31.2652893,32.3018661,33.900785,35.5021105
Saudi Basic Industries Corp,Rabigh,Saudi Arabia,Middle East,22.7906701,39.0189623,22.3061653,39.106468
Saudi Basic Industries Corp,Ruwais,United Arab Emirates,Middle East,24.0944621,52.7346371,25.1887239,55.26356089999999
Saudi Basic Industries Corp,Shuaiba City,Kuwait,Middle East,28.96126049999999,48.1172091,24.7980241,46.7226041
Saudi Basic Industries Corp,Stenungsund,Sweden,Greater Europe,58.0678388,11.8294345,33.9678418,-6.8328631
Saudi Basic Industries Corp,Sumgait,Azerbaijan,Greater Europe,40.5854765,49.6317411,33.9678418,-6.8328631
Saudi Basic Industries Corp,Tarragona,Spain,Greater Europe,41.1188827,1.2444909,33.9678418,-6.8328631
Saudi Basic Industries Corp,Tiszaujvaros,Hungary,Greater Europe,47.91598459999999,21.0427447,33.9678418,-6.8328631
Saudi Basic Industries Corp,Yanbu,Saudi Arabia,Middle East,24.0231757,38.1899782,23.9914039,38.2354197
Saudi Basic Industries Corp,Yeosu,South Korea,Asia,34.7603737,127.6622221,35.195455,128.683931
Saudi Basic Industries Corp,Yulin,China,Asia,22.654032,110.18122,33.9678418,-6.8328631
Saudi Kayan Petrochemical Co,La Porte,United States,North America,29.6657838,-95.0193728,27.0313133,49.5219254
Saudi Kayan Petrochemical Co,Yanbu,Saudi Arabia,Middle East,24.0231757,38.1899782,23.9983606,38.2361563
Shaanxi Xianyang Weiye Plastics Industry,Kashima,Japan,Asia,35.9656835,140.6447937,35.777243,139.630699
Shenergy Co Ltd,Angarsk,Russian Federation,Greater Europe,52.5155702,103.91716,29.557344,106.5719294
Shenergy Co Ltd,Ashboro,United States,North America,39.3989303,-87.1058475,39.3989303,-87.1058475
Shenergy Co Ltd,Ningdong,China,Asia,38.16443,106.586163,39.799263,98.328087
Shenergy Co Ltd,Shurtan,Uzbekistan,Greater Europe,38.45807569999999,65.8055325,29.557344,106.5719294
Shenergy Co Ltd,Weifang,China,Asia,36.706962,119.161748,39.229047,117.167605
Shijiazhuang Union Petrochemical,Dongguan,China,Asia,23.020673,113.751799,23.020673,113.751799
Shinkong Synthetic Fibers Corp,Map Ta Phut,Thailand,Asia,12.713219,101.1685888,24.9377707,121.2023934
Shinkong Synthetic Fibers Corp,Pulau Ayer Merbau,Singapore,Asia,1.2677778,103.7163889,24.9377707,121.2023934
Shouguang Jianyuanchun Chemical,Shouguang,China,Asia,36.85576,118.790739,36.8699037,118.691614
Showa Denko KK,Lanzhou,China,Asia,36.061089,103.834303,36.2715626,139.1999606
Showa Denko KK,Ningbo,China,Asia,29.868336,121.54399,36.2715626,139.1999606
Showa Denko KK,Quanzhou,China,Asia,24.874132,118.675675,36.2715626,139.1999606
Siam Cement PCL/The,Al Jubail,Saudi Arabia,Middle East,26.9597709,49.5687416,13.8050592,100.5374195
Siam Cement PCL/The,Daesan,South Korea,Asia,36.9395813,126.4343234,13.8050592,100.5374195
Siam Cement PCL/The,Dagang,China,Asia,33.189192,120.103473,13.8050592,100.5374195
Siam Cement PCL/The,Eleme,Nigeria,Africa,4.7938534,7.1574784,13.8050592,100.5374195
Siam Cement PCL/The,Kuanyin,Taiwan,Asia,25.0359365,121.1137544,13.8050592,100.5374195
Siam Cement PCL/The,Lepetkata,India,Asia,27.4034788,94.88099849999999,13.8050592,100.5374195
Siam Cement PCL/The,Maoming,China,Asia,21.662991,110.925439,13.8050592,100.5374195
Siam Cement PCL/The,Nanjing,China,Asia,32.060255,118.796877,13.8050592,100.5374195
Siam Cement PCL/The,Ordos,China,Asia,39.608266,109.781327,13.8050592,100.5374195
Siam Cement PCL/The,Panjin,China,Asia,41.119997,122.070714,13.8050592,100.5374195
Siam Cement PCL/The,Shanghai City,China,Asia,31.230416,121.473701,13.8050592,100.5374195
Siam Cement PCL/The,Wuhan,China,Asia,30.592849,114.305539,13.8050592,100.5374195
Siam Cement PCL/The,Zibo,China,Asia,36.813546,118.055019,13.8050592,100.5374195
Sichuan Shengma Petrochemical,Rabigh,Saudi Arabia,Middle East,22.7906701,39.0189623,30.5785248,105.2944155
Sidi Kerir Petrochemicals Co,Alexandria,Egypt,Africa,31.2000924,29.918738700000002,31.004364,29.8394358
Sidi Kerir Petrochemicals Co,Eleme,Nigeria,Africa,4.7938534,7.1574784,31.004364,29.8394358
Sidi Kerir Petrochemicals Co,Lin Yuan,Taiwan,Asia,22.4986756,120.4011911,31.004364,29.8394358
Sidi Kerir Petrochemicals Co,Mailiao,Taiwan,Asia,23.7485306,120.2562662,31.004364,29.8394358
Sidi Kerir Petrochemicals Co,Ras Lanuf,Libya,Africa,30.4808006,18.5463165,31.004364,29.8394358
Sinochem International Corp,Bandar Imam,Iran,Middle East,30.4472068,49.0716096,51.493718,-0.120888
Sumitomo Chemical Co Ltd,Al Jubail,Saudi Arabia,Middle East,26.9597709,49.5687416,26.308538,50.2099986
Sumitomo Chemical Co Ltd,Baotou,China,Asia,40.65797800000001,109.840313,18.9307727,72.826004
Sumitomo Chemical Co Ltd,Baytown,United States,North America,29.7355047,-94.97742740000001,29.7372652,-95.7526671
Sumitomo Chemical Co Ltd,Beihai,China,Asia,21.481291,109.120161,13.7355825,100.5616199
Sumitomo Chemical Co Ltd,Daqing,China,Asia,46.589309,125.103784,18.9307727,72.826004
Sumitomo Chemical Co Ltd,Dushanzi,China,Asia,44.328095,84.886974,19.7901627,72.71931719999999
Sumitomo Chemical Co Ltd,Hohhot,China,Asia,40.842356,111.749995,18.9307727,72.826004
Sumitomo Chemical Co Ltd,Huizhou,China,Asia,23.112257,114.415801,13.7355825,100.5616199
Sumitomo Chemical Co Ltd,Map Ta Phut,Thailand,Asia,12.713219,101.1685888,13.7355825,100.5616199
Sumitomo Chemical Co Ltd,Marcus Hook,United States,North America,39.8192794,-75.4185272,40.7507674,-73.9756108
Sumitomo Chemical Co Ltd,Nanjing,China,Asia,32.060255,118.796877,18.9307727,72.826004
Sumitomo Chemical Co Ltd,Novopolotsk,Belarus,Greater Europe,55.5324165,28.6591795,20.3197221,72.9106396
Sumitomo Chemical Co Ltd,Ordos,China,Asia,39.608266,109.781327,18.9307727,72.826004
Sumitomo Chemical Co Ltd,Panipat,India,Asia,29.3909464,76.9635023,28.6454287,77.17761999999999
Sumitomo Chemical Co Ltd,Quanzhou,China,Asia,24.874132,118.675675,18.9307727,72.826004
Sumitomo Chemical Co Ltd,Shaoxing,China,Asia,29.995762,120.586109,18.9307727,72.826004
Sumitomo Chemical Co Ltd,Yan'an,China,Asia,36.585445,109.489757,18.9307727,72.826004
Sumitomo Chemical Co Ltd,Yanbu,Saudi Arabia,Middle East,24.0231757,38.1899782,22.7476988,39.0301484
Sumitomo Chemical Co Ltd,Yangpu,China,Asia,31.259822,121.525727,18.9307727,72.826004
Suqian Hongda Chemical,Kuala Lumpur,Malaysia,Asia,3.139003,101.686855,34.3638903,117.4263299
TABRIZ PETROCHEMICAL CO.,Haifa,Israel,Middle East,32.7940463,34.989571,38.0713528,46.1537353
TABRIZ PETROCHEMICAL CO.,Shuaiba City,Kuwait,Middle East,28.96126049999999,48.1172091,38.0713528,46.1537353
TABRIZ PETROCHEMICAL CO.,Tabriz,Iran,Middle East,38.096239,46.2738013,38.0713528,46.1537353
THE EGYPTIAN ETHYLENE AND DERIVATIVES COMPANY,Daesan,South Korea,Asia,36.9395813,126.4343234,31.00448,29.8343409
THE EGYPTIAN ETHYLENE AND DERIVATIVES COMPANY,Lin Yuan,Taiwan,Asia,22.4986756,120.4011911,31.00448,29.8343409
THE EGYPTIAN ETHYLENE AND DERIVATIVES COMPANY,Mailiao,Taiwan,Asia,23.7485306,120.2562662,31.00448,29.8343409
THE EGYPTIAN ETHYLENE AND DERIVATIVES COMPANY,Ulsan,South Korea,Asia,35.5383773,129.3113596,31.00448,29.8343409
TK Chemical Corp,Mesaieed,Qatar,Middle East,24.9909255,51.5493483,25.2546727,51.5146107
TOTAL SE,Al Jubail,Saudi Arabia,Middle East,26.9597709,49.5687416,12.6198565,-7.984729
TOTAL SE,Bayport,United States,North America,40.7384317,-73.0506656,40.7384317,-73.0506656
TOTAL SE,Brindisi,Italy,Greater Europe,40.6327278,17.9417616,40.5041,17.6492
TOTAL SE,Burghausen,Germany,Greater Europe,48.1725613,12.8310753,48.1725613,12.8310753
TOTAL SE,Dahej,India,Asia,21.7129335,72.58200900000001,22.5353608,72.92777579999999
TOTAL SE,Ferrara,Italy,Greater Europe,44.8381237,11.619787,44.7834344,10.3851783
TOTAL SE,Geleen,Netherlands,Greater Europe,50.9672139,5.8277247,50.9569888,5.8144567
TOTAL SE,Gelsenkirchen,Germany,Greater Europe,51.517744,7.085717199999999,51.5202562,7.0787773
TOTAL SE,Hazira,India,Asia,21.1784184,72.6587856,21.1205296,72.74308900000001
TOTAL SE,Heze,China,Asia,35.23375,115.480656,32.370557,120.574945
TOTAL SE,Jurong Island,Singapore,Asia,1.2759631,103.6767958,1.530542,103.6183904
TOTAL SE,Mesaieed,Qatar,Middle East,24.9909255,51.5493483,25.3207683,51.52901840000001
TOTAL SE,Mizushima,Japan,Asia,36.637423,136.9056142,36.576465,136.6527882
TOTAL SE,Nagothane,India,Asia,18.5446161,73.13643569999999,19.0895595,72.8656144
TOTAL SE,Ningbo,China,Asia,29.868336,121.54399,29.877428,121.55809
TOTAL SE,Pasir Gudang,Malaysia,Asia,1.470288,103.9029689,1.530542,103.6183904
TOTAL SE,Pata,India,Asia,26.6564041,79.49007379999999,26.6564041,79.49007379999999
TOTAL SE,Ragusa,Italy,Greater Europe,36.9269273,14.7255129,36.8437975,14.7662302
TOTAL SE,Rayong,Thailand,Asia,12.6813957,101.2816261,12.6813957,101.2816261
TOTAL SE,Schkopau,Germany,Greater Europe,51.3900745,11.985150499999998,51.3718902,11.9828987
TOTAL SE,Ulsan,South Korea,Asia,35.5383773,129.3113596,37.514852,127.0573766
TOTAL SE,Yeosu,South Korea,Asia,34.7603737,127.6622221,37.514852,127.0573766
TOTAL SE,Zhuhai,China,Asia,22.270978,113.576677,22.2064042,113.5604566
TOTAL SE,Zibo,China,Asia,36.813546,118.055019,32.370557,120.574945
TPI Polene PCL,Shanghai City,China,Asia,31.230416,121.473701,13.707882,100.538173
Tainan Spinning Co Ltd,Ulsan,South Korea,Asia,35.5383773,129.3113596,10.9140084,106.8657075
Tianmao Industrial Group,Osasco,Brazil,Latin America and the Caribbean,-23.5372048,-46.7962319,25.810323,-80.23851599999999
Tokuyama Corp,Dalian,China,Asia,38.91400300000001,121.614682,35.6560245,139.7231289
Toray Industries Inc,Cedar Bayou,United States,North America,29.7818838,-94.9216,30.0328661,-95.43326139999999
Toray Industries Inc,Wuhan,China,Asia,30.592849,114.305539,35.5090272,140.0521478
Tosoh Corp,Map Ta Phut,Thailand,Asia,12.713219,101.1685888,1.2842692,103.8504456
Turkmengaz,Daqing,China,Asia,46.589309,125.103784,37.9415915,58.43138589999999
Turkmengaz,Mizushima,Japan,Asia,36.637423,136.9056142,37.9415915,58.43138589999999
Turkmenneftegaz,Khartoum,Sudan,Africa,15.5006544,32.5598994,15.5006544,32.5598994
UAB NEO GROUP,Santiago de Queretaro,Mexico,North America,20.5887932,-100.3898881,55.6743751,21.2264227
UNITIKA LTD,Al Jubail,Saudi Arabia,Middle East,26.9597709,49.5687416,51.2227776,6.7855555
USI Corp,Ichihara,Japan,Asia,35.4978821,140.1148672,22.714078,120.3375212
USI Corp,Kawasaki,Japan,Asia,35.5308325,139.7029125,22.714078,120.3375212
USI Corp,Kyyanly,Turkmenistan,Greater Europe,40.033333,52.766667,22.714078,120.3375212
UZ-KOR GAS CHEMICAL LLC,Ichihara,Japan,Asia,35.4978821,140.1148672,41.33057429999999,69.2653571
UZ-KOR GAS CHEMICAL LLC,Jinjiang,China,Asia,24.781681,118.552365,41.33057429999999,69.2653571
UZ-KOR GAS CHEMICAL LLC,Kashima,Japan,Asia,35.9656835,140.6447937,41.33057429999999,69.2653571
UZ-KOR GAS CHEMICAL LLC,Yinchuan,China,Asia,38.487193,106.230908,41.33057429999999,69.2653571
Ube Industries Ltd,Baotou,China,Asia,40.65797800000001,109.840313,17.4374614,78.4482878
Ube Industries Ltd,Map Ta Phut,Thailand,Asia,12.713219,101.1685888,12.6582702,101.3249539
VIETNAM OIL AND GAS GROUP,Al Jubail,Saudi Arabia,Middle East,26.9597709,49.5687416,26.366669,50.177858
VIETNAM OIL AND GAS GROUP,Suqian,China,Asia,33.963232,118.275198,21.0171474,105.8149065
"WANBEI COAL & ELECTRICAL GROUP CO., LTD.",Nizhnekamsk,Russian Federation,Greater Europe,55.613196,51.8469974,33.6230484,116.9721583
"WANBEI COAL & ELECTRICAL GROUP CO., LTD.",Rizhao,China,Asia,35.416734,119.526925,33.6230484,116.9721583
Weifang Shanjun Plastics Industry,Jamnagar,India,Asia,22.4707019,70.05773,22.2966319,70.7985698
Westlake Chemical Corp,Baton Rouge,United States,North America,30.4514677,-91.18714659999999,30.2670011,-91.1840533
Westlake Chemical Corp,Clinton,United States,North America,39.6481768,-94.479976,37.05001439999999,-88.3377532
Westlake Chemical Corp,Edmonton,Canada,North America,53.5461245,-113.4938229,46.1180343,-122.9647292
Westlake Chemical Corp,Lake Charles,United States,North America,30.2265949,-93.2173758,30.2301118,-93.2862689
Westlake Chemical Corp,Longview,United States,North America,32.5007037,-94.74048909999999,32.4542083,-94.68786870000001
Wuhe Plastics,Ahmedabad,India,Asia,23.022505,72.5713621,39.940506,116.258773
XUZHOU HAITIAN PETROCHEMICAL,Al Jubail,Saudi Arabia,Middle East,26.9597709,49.5687416,34.3092401,117.9763217
XUZHOU HAITIAN PETROCHEMICAL,Dalian,China,Asia,38.91400300000001,121.614682,34.304262,118.0249489
"Xinjiang Xinfeng,Ltd",Tangerang,Indonesia,Asia,-6.1701796,106.6403236,41.1553038,80.2485827
Yanbu National Petrochemical C,Al Jubail,Saudi Arabia,Middle East,26.9597709,49.5687416,23.9876862,38.260684
Yanbu National Petrochemical C,Point Comfort,United States,North America,28.6797169,-96.56025369999999,23.9876862,38.260684
Yanbu National Petrochemical C,Ruwais,United Arab Emirates,Middle East,24.0944621,52.7346371,23.9876862,38.260684
Yanbu National Petrochemical C,Yanbu,Saudi Arabia,Middle East,24.0231757,38.1899782,23.9876862,38.260684
Yunnan Yuntianhua Co Ltd,Nanjing,China,Asia,32.060255,118.796877,24.9811527,102.667904
"ZHEJIANG HENGYI PETROCHEMICALS CO., LTD.",Al Jubail,Saudi Arabia,Middle East,26.9597709,49.5687416,30.163113,120.403049
"ZHEJIANG HENGYI PETROCHEMICALS CO., LTD.",Yanbu,Saudi Arabia,Middle East,24.0231757,38.1899782,30.163113,120.403049
"ZHEJIANG HONGJI PETROCHEMICAL CO., LTD.",Haifa,Israel,Middle East,32.7940463,34.989571,29.9665727,121.7606796
"ZHEJIANG HONGJI PETROCHEMICAL CO., LTD.",Qom,Iran,Middle East,34.6415764,50.8746035,29.9665727,121.7606796
"ZHEJIANG SHAOXING SANYUAN PETROCHEMICAL CO., LTD.",Tiszaujvaros,Hungary,Greater Europe,47.91598459999999,21.0427447,29.5794761,120.8299929
"ZHEJIANG XINGXING NEW ENERGY CHEMICAL CO., LTD.",Barbastro,Spain,Europe,42.0360435,0.1284404,42.0360435,0.1284404
Zepu Dong Chen Industrial,Hazira,India,Asia,21.1784184,72.6587856,21.1784184,72.6587856
Zhejiang Satellite Petrochemic,Gaziantep,Turkey,Europe,37.065953,37.37811,30.7323897,120.8957969
Zhejiang Wankai New Materials Co. Ltd,Yanbu,Saudi Arabia,Middle East,24.0231757,38.1899782,30.3073483,120.8066202
Zhenghe Group,Tabriz,Iran,Middle East,38.096239,46.2738013,37.132356,118.4343858
Zibo Nuohong Chemical,Cilegon,Indonesia,Asia,-6.0186817,106.0558218,36.7554422,118.266196
Zibo Qitai Petrochemical,Cilegon,Indonesia,Asia,-6.0186817,106.0558218,36.7685783,118.0633029
Zibo Yuanshun Chemical,Cilegon,Indonesia,Asia,-6.0186817,106.0558218,36.750899,118.26992
